{"type": "FeatureCollection", "features": [{"type": "Feature", "geometry": {"type": "Point", "coordinates": [-67.1128, 18.49571]}, "properties": {"seg_id": "PU000", "name": "Aguadilla / Crash Boat", "island": "puerto_rico", "coast": "north", "length_m": 5000.0, "kg_per_m_total": 0.0, "kg_per_m_physical": 0.0, "tonnes_total": 0.0, "tonnes_by_day": [0.0, 0.0, 0.0, 0.0, 0.0], "h2s_kg_per_day": [0.0, 0.0, 0.0, 0.0, 0.0, 0.0, 0.0, 0.0, 0.0, 0.0, 0.0, 0.0, 0.0, 0.0, 0.0, 0.0, 0.0], "nh3_kg_per_day": [0.0, 0.0, 0.0, 0.0, 0.0, 0.0, 0.0, 0.0, 0.0, 0.0, 0.0, 0.0, 0.0, 0.0, 0.0, 0.0, 0.0], "h2s_peak_kg_day_km": 0.0, "risk_tier": "minimal", "exposure": {"ppm": 0.0, "label": "not detectable", "odour_detect_ppm": 0.0005, "who_24h_ppm": 0.107, "atsdr_acute_mrl_ppm": 0.07, "osha_ceiling_ppm": 20.0}, "source": "physical"}}, {"type": "Feature", "geometry": {"type": "Point", "coordinates": [-67.0656, 18.49142]}, "properties": {"seg_id": "PU001", "name": "Isabela / Jobos", "island": "puerto_rico", "coast": "north", "length_m": 5000.0, "kg_per_m_total": 0.0, "kg_per_m_physical": 0.0, "tonnes_total": 0.0, "tonnes_by_day": [0.0, 0.0, 0.0, 0.0, 0.0], "h2s_kg_per_day": [0.0, 0.0, 0.0, 0.0, 0.0, 0.0, 0.0, 0.0, 0.0, 0.0, 0.0, 0.0, 0.0, 0.0, 0.0, 0.0, 0.0], "nh3_kg_per_day": [0.0, 0.0, 0.0, 0.0, 0.0, 0.0, 0.0, 0.0, 0.0, 0.0, 0.0, 0.0, 0.0, 0.0, 0.0, 0.0, 0.0], "h2s_peak_kg_day_km": 0.0, "risk_tier": "minimal", "exposure": {"ppm": 0.0, "label": "not detectable", "odour_detect_ppm": 0.0005, "who_24h_ppm": 0.107, "atsdr_acute_mrl_ppm": 0.07, "osha_ceiling_ppm": 20.0}, "source": "physical"}}, {"type": "Feature", "geometry": {"type": "Point", "coordinates": [-67.01843, 18.49316]}, "properties": {"seg_id": "PU002", "name": "Isabela / Jobos", "island": "puerto_rico", "coast": "north", "length_m": 5000.0, "kg_per_m_total": 0.0, "kg_per_m_physical": 0.0, "tonnes_total": 0.0, "tonnes_by_day": [0.0, 0.0, 0.0, 0.0, 0.0], "h2s_kg_per_day": [0.0, 0.0, 0.0, 0.0, 0.0, 0.0, 0.0, 0.0, 0.0, 0.0, 0.0, 0.0, 0.0, 0.0, 0.0, 0.0, 0.0], "nh3_kg_per_day": [0.0, 0.0, 0.0, 0.0, 0.0, 0.0, 0.0, 0.0, 0.0, 0.0, 0.0, 0.0, 0.0, 0.0, 0.0, 0.0, 0.0], "h2s_peak_kg_day_km": 0.0, "risk_tier": "minimal", "exposure": {"ppm": 0.0, "label": "not detectable", "odour_detect_ppm": 0.0005, "who_24h_ppm": 0.107, "atsdr_acute_mrl_ppm": 0.07, "osha_ceiling_ppm": 20.0}, "source": "physical"}}, {"type": "Feature", "geometry": {"type": "Point", "coordinates": [-66.97128, 18.49787]}, "properties": {"seg_id": "PU003", "name": "Quebradillas", "island": "puerto_rico", "coast": "north", "length_m": 5000.0, "kg_per_m_total": 0.0, "kg_per_m_physical": 0.0, "tonnes_total": 0.0, "tonnes_by_day": [0.0, 0.0, 0.0, 0.0, 0.0], "h2s_kg_per_day": [0.0, 0.0, 0.0, 0.0, 0.0, 0.0, 0.0, 0.0, 0.0, 0.0, 0.0, 0.0, 0.0, 0.0, 0.0, 0.0, 0.0], "nh3_kg_per_day": [0.0, 0.0, 0.0, 0.0, 0.0, 0.0, 0.0, 0.0, 0.0, 0.0, 0.0, 0.0, 0.0, 0.0, 0.0, 0.0, 0.0], "h2s_peak_kg_day_km": 0.0, "risk_tier": "minimal", "exposure": {"ppm": 0.0, "label": "not detectable", "odour_detect_ppm": 0.0005, "who_24h_ppm": 0.107, "atsdr_acute_mrl_ppm": 0.07, "osha_ceiling_ppm": 20.0}, "source": "physical"}}, {"type": "Feature", "geometry": {"type": "Point", "coordinates": [-66.92408, 18.49784]}, "properties": {"seg_id": "PU004", "name": "Quebradillas", "island": "puerto_rico", "coast": "north", "length_m": 5000.0, "kg_per_m_total": 0.0, "kg_per_m_physical": 0.0, "tonnes_total": 0.0, "tonnes_by_day": [0.0, 0.0, 0.0, 0.0, 0.0], "h2s_kg_per_day": [0.0, 0.0, 0.0, 0.0, 0.0, 0.0, 0.0, 0.0, 0.0, 0.0, 0.0, 0.0, 0.0, 0.0, 0.0, 0.0, 0.0], "nh3_kg_per_day": [0.0, 0.0, 0.0, 0.0, 0.0, 0.0, 0.0, 0.0, 0.0, 0.0, 0.0, 0.0, 0.0, 0.0, 0.0, 0.0, 0.0], "h2s_peak_kg_day_km": 0.0, "risk_tier": "minimal", "exposure": {"ppm": 0.0, "label": "not detectable", "odour_detect_ppm": 0.0005, "who_24h_ppm": 0.107, "atsdr_acute_mrl_ppm": 0.07, "osha_ceiling_ppm": 20.0}, "source": "physical"}}, {"type": "Feature", "geometry": {"type": "Point", "coordinates": [-66.87685, 18.4939]}, "properties": {"seg_id": "PU005", "name": "Quebradillas", "island": "puerto_rico", "coast": "north", "length_m": 5000.0, "kg_per_m_total": 0.0, "kg_per_m_physical": 0.0, "tonnes_total": 0.0, "tonnes_by_day": [0.0, 0.0, 0.0, 0.0, 0.0], "h2s_kg_per_day": [0.0, 0.0, 0.0, 0.0, 0.0, 0.0, 0.0, 0.0, 0.0, 0.0, 0.0, 0.0, 0.0, 0.0, 0.0, 0.0, 0.0], "nh3_kg_per_day": [0.0, 0.0, 0.0, 0.0, 0.0, 0.0, 0.0, 0.0, 0.0, 0.0, 0.0, 0.0, 0.0, 0.0, 0.0, 0.0, 0.0], "h2s_peak_kg_day_km": 0.0, "risk_tier": "minimal", "exposure": {"ppm": 0.0, "label": "not detectable", "odour_detect_ppm": 0.0005, "who_24h_ppm": 0.107, "atsdr_acute_mrl_ppm": 0.07, "osha_ceiling_ppm": 20.0}, "source": "physical"}}, {"type": "Feature", "geometry": {"type": "Point", "coordinates": [-66.82962, 18.48997]}, "properties": {"seg_id": "PU006", "name": "Arecibo", "island": "puerto_rico", "coast": "north", "length_m": 5000.0, "kg_per_m_total": 0.004, "kg_per_m_physical": 0.004, "tonnes_total": 0.02, "tonnes_by_day": [0.0, 0.0, 0.0, 0.0, 0.02], "h2s_kg_per_day": [0.0, 0.0, 0.0, 0.0, 0.0, 0.0, 0.001, 0.003, 0.002, 0.002, 0.002, 0.001, 0.001, 0.001, 0.001, 0.001, 0.0], "nh3_kg_per_day": [0.0, 0.0, 0.0, 0.0, 0.0, 0.0, 0.0, 0.001, 0.001, 0.001, 0.0, 0.0, 0.0, 0.0, 0.0, 0.0, 0.0], "h2s_peak_kg_day_km": 0.001, "risk_tier": "minimal", "exposure": {"ppm": 0.00353, "label": "faint odour", "odour_detect_ppm": 0.0005, "who_24h_ppm": 0.107, "atsdr_acute_mrl_ppm": 0.07, "osha_ceiling_ppm": 20.0}, "source": "physical"}}, {"type": "Feature", "geometry": {"type": "Point", "coordinates": [-66.78242, 18.48567]}, "properties": {"seg_id": "PU007", "name": "Arecibo", "island": "puerto_rico", "coast": "north", "length_m": 5000.0, "kg_per_m_total": 0.012, "kg_per_m_physical": 0.012, "tonnes_total": 0.061, "tonnes_by_day": [0.0, 0.0, 0.0, 0.0, 0.061], "h2s_kg_per_day": [0.0, 0.0, 0.0, 0.0, 0.0, 0.0, 0.004, 0.009, 0.007, 0.006, 0.005, 0.004, 0.003, 0.003, 0.002, 0.002, 0.001], "nh3_kg_per_day": [0.0, 0.0, 0.0, 0.0, 0.0, 0.0, 0.001, 0.003, 0.002, 0.002, 0.001, 0.001, 0.001, 0.001, 0.001, 0.001, 0.0], "h2s_peak_kg_day_km": 0.002, "risk_tier": "minimal", "exposure": {"ppm": 0.00491, "label": "faint odour", "odour_detect_ppm": 0.0005, "who_24h_ppm": 0.107, "atsdr_acute_mrl_ppm": 0.07, "osha_ceiling_ppm": 20.0}, "source": "physical"}}, {"type": "Feature", "geometry": {"type": "Point", "coordinates": [-66.73523, 18.48138]}, "properties": {"seg_id": "PU008", "name": "Arecibo", "island": "puerto_rico", "coast": "north", "length_m": 5000.0, "kg_per_m_total": 0.046, "kg_per_m_physical": 0.046, "tonnes_total": 0.229, "tonnes_by_day": [0.0, 0.0, 0.0, 0.229, 0.0], "h2s_kg_per_day": [0.0, 0.0, 0.0, 0.0, 0.0, 0.001, 0.025, 0.03, 0.025, 0.02, 0.017, 0.014, 0.011, 0.009, 0.007, 0.006, 0.005], "nh3_kg_per_day": [0.0, 0.0, 0.0, 0.0, 0.0, 0.0, 0.008, 0.01, 0.008, 0.006, 0.005, 0.004, 0.003, 0.003, 0.002, 0.002, 0.002], "h2s_peak_kg_day_km": 0.006, "risk_tier": "minimal", "exposure": {"ppm": 0.00544, "label": "faint odour", "odour_detect_ppm": 0.0005, "who_24h_ppm": 0.107, "atsdr_acute_mrl_ppm": 0.07, "osha_ceiling_ppm": 20.0}, "source": "physical"}}, {"type": "Feature", "geometry": {"type": "Point", "coordinates": [-66.68803, 18.48291]}, "properties": {"seg_id": "PU009", "name": "Arecibo", "island": "puerto_rico", "coast": "north", "length_m": 5000.0, "kg_per_m_total": 0.0, "kg_per_m_physical": 0.0, "tonnes_total": 0.0, "tonnes_by_day": [0.0, 0.0, 0.0, 0.0, 0.0], "h2s_kg_per_day": [0.0, 0.0, 0.0, 0.0, 0.0, 0.0, 0.0, 0.0, 0.0, 0.0, 0.0, 0.0, 0.0, 0.0, 0.0, 0.0, 0.0], "nh3_kg_per_day": [0.0, 0.0, 0.0, 0.0, 0.0, 0.0, 0.0, 0.0, 0.0, 0.0, 0.0, 0.0, 0.0, 0.0, 0.0, 0.0, 0.0], "h2s_peak_kg_day_km": 0.0, "risk_tier": "minimal", "exposure": {"ppm": 0.0, "label": "not detectable", "odour_detect_ppm": 0.0005, "who_24h_ppm": 0.107, "atsdr_acute_mrl_ppm": 0.07, "osha_ceiling_ppm": 20.0}, "source": "physical"}}, {"type": "Feature", "geometry": {"type": "Point", "coordinates": [-66.64083, 18.4872]}, "properties": {"seg_id": "PU010", "name": "Arecibo", "island": "puerto_rico", "coast": "north", "length_m": 5000.0, "kg_per_m_total": 0.0, "kg_per_m_physical": 0.0, "tonnes_total": 0.0, "tonnes_by_day": [0.0, 0.0, 0.0, 0.0, 0.0], "h2s_kg_per_day": [0.0, 0.0, 0.0, 0.0, 0.0, 0.0, 0.0, 0.0, 0.0, 0.0, 0.0, 0.0, 0.0, 0.0, 0.0, 0.0, 0.0], "nh3_kg_per_day": [0.0, 0.0, 0.0, 0.0, 0.0, 0.0, 0.0, 0.0, 0.0, 0.0, 0.0, 0.0, 0.0, 0.0, 0.0, 0.0, 0.0], "h2s_peak_kg_day_km": 0.0, "risk_tier": "minimal", "exposure": {"ppm": 0.0, "label": "not detectable", "odour_detect_ppm": 0.0005, "who_24h_ppm": 0.107, "atsdr_acute_mrl_ppm": 0.07, "osha_ceiling_ppm": 20.0}, "source": "physical"}}, {"type": "Feature", "geometry": {"type": "Point", "coordinates": [-66.5937, 18.48796]}, "properties": {"seg_id": "PU011", "name": "Barceloneta / Punta Morillos", "island": "puerto_rico", "coast": "north", "length_m": 5000.0, "kg_per_m_total": 0.013, "kg_per_m_physical": 0.013, "tonnes_total": 0.064, "tonnes_by_day": [0.0, 0.0, 0.0, 0.064, 0.0], "h2s_kg_per_day": [0.0, 0.0, 0.0, 0.0, 0.0, 0.003, 0.009, 0.008, 0.006, 0.005, 0.004, 0.003, 0.003, 0.002, 0.002, 0.002, 0.001], "nh3_kg_per_day": [0.0, 0.0, 0.0, 0.0, 0.0, 0.001, 0.003, 0.002, 0.002, 0.002, 0.001, 0.001, 0.001, 0.001, 0.001, 0.0, 0.0], "h2s_peak_kg_day_km": 0.002, "risk_tier": "minimal", "exposure": {"ppm": 0.00502, "label": "faint odour", "odour_detect_ppm": 0.0005, "who_24h_ppm": 0.107, "atsdr_acute_mrl_ppm": 0.07, "osha_ceiling_ppm": 20.0}, "source": "physical"}}, {"type": "Feature", "geometry": {"type": "Point", "coordinates": [-66.5467, 18.48209]}, "properties": {"seg_id": "PU012", "name": "Barceloneta / Punta Morillos", "island": "puerto_rico", "coast": "north", "length_m": 5000.0, "kg_per_m_total": 0.035, "kg_per_m_physical": 0.035, "tonnes_total": 0.177, "tonnes_by_day": [0.0, 0.0, 0.144, 0.033, 0.0], "h2s_kg_per_day": [0.0, 0.0, 0.0, 0.0, 0.0, 0.015, 0.024, 0.02, 0.016, 0.013, 0.011, 0.009, 0.007, 0.006, 0.005, 0.004, 0.003], "nh3_kg_per_day": [0.0, 0.0, 0.0, 0.0, 0.0, 0.005, 0.008, 0.006, 0.005, 0.004, 0.003, 0.003, 0.002, 0.002, 0.002, 0.001, 0.001], "h2s_peak_kg_day_km": 0.005, "risk_tier": "minimal", "exposure": {"ppm": 0.00648, "label": "faint odour", "odour_detect_ppm": 0.0005, "who_24h_ppm": 0.107, "atsdr_acute_mrl_ppm": 0.07, "osha_ceiling_ppm": 20.0}, "source": "physical"}}, {"type": "Feature", "geometry": {"type": "Point", "coordinates": [-66.49953, 18.47766]}, "properties": {"seg_id": "PU013", "name": "Barceloneta / Punta Morillos", "island": "puerto_rico", "coast": "north", "length_m": 5000.0, "kg_per_m_total": 0.016, "kg_per_m_physical": 0.016, "tonnes_total": 0.081, "tonnes_by_day": [0.0, 0.0, 0.081, 0.0, 0.0], "h2s_kg_per_day": [0.0, 0.0, 0.0, 0.0, 0.0, 0.009, 0.011, 0.009, 0.007, 0.006, 0.005, 0.004, 0.003, 0.003, 0.002, 0.002, 0.001], "nh3_kg_per_day": [0.0, 0.0, 0.0, 0.0, 0.0, 0.003, 0.003, 0.003, 0.002, 0.002, 0.001, 0.001, 0.001, 0.001, 0.001, 0.001, 0.0], "h2s_peak_kg_day_km": 0.002, "risk_tier": "minimal", "exposure": {"ppm": 0.00555, "label": "faint odour", "odour_detect_ppm": 0.0005, "who_24h_ppm": 0.107, "atsdr_acute_mrl_ppm": 0.07, "osha_ceiling_ppm": 20.0}, "source": "physical"}}, {"type": "Feature", "geometry": {"type": "Point", "coordinates": [-66.45228, 18.47402]}, "properties": {"seg_id": "PU014", "name": "Vega Baja / Manat\u00ed", "island": "puerto_rico", "coast": "north", "length_m": 5000.0, "kg_per_m_total": 0.045, "kg_per_m_physical": 0.045, "tonnes_total": 0.223, "tonnes_by_day": [0.0, 0.0, 0.223, 0.0, 0.0], "h2s_kg_per_day": [0.0, 0.0, 0.0, 0.0, 0.004, 0.029, 0.028, 0.023, 0.019, 0.015, 0.013, 0.01, 0.008, 0.007, 0.006, 0.005, 0.004], "nh3_kg_per_day": [0.0, 0.0, 0.0, 0.0, 0.001, 0.009, 0.009, 0.007, 0.006, 0.005, 0.004, 0.003, 0.003, 0.002, 0.002, 0.001, 0.001], "h2s_peak_kg_day_km": 0.006, "risk_tier": "minimal", "exposure": {"ppm": 0.00732, "label": "faint odour", "odour_detect_ppm": 0.0005, "who_24h_ppm": 0.107, "atsdr_acute_mrl_ppm": 0.07, "osha_ceiling_ppm": 20.0}, "source": "physical"}}, {"type": "Feature", "geometry": {"type": "Point", "coordinates": [-66.40502, 18.47039]}, "properties": {"seg_id": "PU015", "name": "Vega Baja / Manat\u00ed", "island": "puerto_rico", "coast": "north", "length_m": 5000.0, "kg_per_m_total": 0.026, "kg_per_m_physical": 0.026, "tonnes_total": 0.132, "tonnes_by_day": [0.0, 0.0, 0.132, 0.0, 0.0], "h2s_kg_per_day": [0.0, 0.0, 0.0, 0.0, 0.007, 0.019, 0.016, 0.013, 0.01, 0.009, 0.007, 0.006, 0.005, 0.004, 0.003, 0.003, 0.002], "nh3_kg_per_day": [0.0, 0.0, 0.0, 0.0, 0.002, 0.006, 0.005, 0.004, 0.003, 0.003, 0.002, 0.002, 0.001, 0.001, 0.001, 0.001, 0.001], "h2s_peak_kg_day_km": 0.004, "risk_tier": "minimal", "exposure": {"ppm": 0.00728, "label": "faint odour", "odour_detect_ppm": 0.0005, "who_24h_ppm": 0.107, "atsdr_acute_mrl_ppm": 0.07, "osha_ceiling_ppm": 20.0}, "source": "physical"}}, {"type": "Feature", "geometry": {"type": "Point", "coordinates": [-66.35763, 18.47]}, "properties": {"seg_id": "PU016", "name": "Vega Baja / Manat\u00ed", "island": "puerto_rico", "coast": "north", "length_m": 5000.0, "kg_per_m_total": 0.0, "kg_per_m_physical": 0.0, "tonnes_total": 0.0, "tonnes_by_day": [0.0, 0.0, 0.0, 0.0, 0.0], "h2s_kg_per_day": [0.0, 0.0, 0.0, 0.0, 0.0, 0.0, 0.0, 0.0, 0.0, 0.0, 0.0, 0.0, 0.0, 0.0, 0.0, 0.0, 0.0], "nh3_kg_per_day": [0.0, 0.0, 0.0, 0.0, 0.0, 0.0, 0.0, 0.0, 0.0, 0.0, 0.0, 0.0, 0.0, 0.0, 0.0, 0.0, 0.0], "h2s_peak_kg_day_km": 0.0, "risk_tier": "minimal", "exposure": {"ppm": 0.0, "label": "not detectable", "odour_detect_ppm": 0.0005, "who_24h_ppm": 0.107, "atsdr_acute_mrl_ppm": 0.07, "osha_ceiling_ppm": 20.0}, "source": "physical"}}, {"type": "Feature", "geometry": {"type": "Point", "coordinates": [-66.31022, 18.47]}, "properties": {"seg_id": "PU017", "name": "Dorado", "island": "puerto_rico", "coast": "north", "length_m": 5000.0, "kg_per_m_total": 0.0, "kg_per_m_physical": 0.0, "tonnes_total": 0.0, "tonnes_by_day": [0.0, 0.0, 0.0, 0.0, 0.0], "h2s_kg_per_day": [0.0, 0.0, 0.0, 0.0, 0.0, 0.0, 0.0, 0.0, 0.0, 0.0, 0.0, 0.0, 0.0, 0.0, 0.0, 0.0, 0.0], "nh3_kg_per_day": [0.0, 0.0, 0.0, 0.0, 0.0, 0.0, 0.0, 0.0, 0.0, 0.0, 0.0, 0.0, 0.0, 0.0, 0.0, 0.0, 0.0], "h2s_peak_kg_day_km": 0.0, "risk_tier": "minimal", "exposure": {"ppm": 0.0, "label": "not detectable", "odour_detect_ppm": 0.0005, "who_24h_ppm": 0.107, "atsdr_acute_mrl_ppm": 0.07, "osha_ceiling_ppm": 20.0}, "source": "physical"}}, {"type": "Feature", "geometry": {"type": "Point", "coordinates": [-66.26282, 18.47]}, "properties": {"seg_id": "PU018", "name": "Dorado", "island": "puerto_rico", "coast": "north", "length_m": 5000.0, "kg_per_m_total": 0.0, "kg_per_m_physical": 0.0, "tonnes_total": 0.0, "tonnes_by_day": [0.0, 0.0, 0.0, 0.0, 0.0], "h2s_kg_per_day": [0.0, 0.0, 0.0, 0.0, 0.0, 0.0, 0.0, 0.0, 0.0, 0.0, 0.0, 0.0, 0.0, 0.0, 0.0, 0.0, 0.0], "nh3_kg_per_day": [0.0, 0.0, 0.0, 0.0, 0.0, 0.0, 0.0, 0.0, 0.0, 0.0, 0.0, 0.0, 0.0, 0.0, 0.0, 0.0, 0.0], "h2s_peak_kg_day_km": 0.0, "risk_tier": "minimal", "exposure": {"ppm": 0.0, "label": "not detectable", "odour_detect_ppm": 0.0005, "who_24h_ppm": 0.107, "atsdr_acute_mrl_ppm": 0.07, "osha_ceiling_ppm": 20.0}, "source": "physical"}}, {"type": "Feature", "geometry": {"type": "Point", "coordinates": [-66.21541, 18.47]}, "properties": {"seg_id": "PU019", "name": "Dorado", "island": "puerto_rico", "coast": "north", "length_m": 5000.0, "kg_per_m_total": 0.0, "kg_per_m_physical": 0.0, "tonnes_total": 0.0, "tonnes_by_day": [0.0, 0.0, 0.0, 0.0, 0.0], "h2s_kg_per_day": [0.0, 0.0, 0.0, 0.0, 0.0, 0.0, 0.0, 0.0, 0.0, 0.0, 0.0, 0.0, 0.0, 0.0, 0.0, 0.0, 0.0], "nh3_kg_per_day": [0.0, 0.0, 0.0, 0.0, 0.0, 0.0, 0.0, 0.0, 0.0, 0.0, 0.0, 0.0, 0.0, 0.0, 0.0, 0.0, 0.0], "h2s_peak_kg_day_km": 0.0, "risk_tier": "minimal", "exposure": {"ppm": 0.0, "label": "not detectable", "odour_detect_ppm": 0.0005, "who_24h_ppm": 0.107, "atsdr_acute_mrl_ppm": 0.07, "osha_ceiling_ppm": 20.0}, "source": "physical"}}, {"type": "Feature", "geometry": {"type": "Point", "coordinates": [-66.16822, 18.46647]}, "properties": {"seg_id": "PU020", "name": "Toa Baja / Cata\u00f1o", "island": "puerto_rico", "coast": "north", "length_m": 5000.0, "kg_per_m_total": 2.425, "kg_per_m_physical": 2.425, "tonnes_total": 12.127, "tonnes_by_day": [0.0, 0.0, 0.0, 0.0, 12.127], "h2s_kg_per_day": [0.0, 0.0, 0.0, 0.0, 0.0, 0.0, 0.158, 1.33, 1.592, 1.304, 1.067, 0.874, 0.715, 0.586, 0.48, 0.393, 0.321], "nh3_kg_per_day": [0.0, 0.0, 0.0, 0.0, 0.0, 0.0, 0.049, 0.416, 0.498, 0.407, 0.334, 0.273, 0.224, 0.183, 0.15, 0.123, 0.1], "h2s_peak_kg_day_km": 0.318, "risk_tier": "minimal", "exposure": {"ppm": 0.00471, "label": "faint odour", "odour_detect_ppm": 0.0005, "who_24h_ppm": 0.107, "atsdr_acute_mrl_ppm": 0.07, "osha_ceiling_ppm": 20.0}, "source": "physical"}}, {"type": "Feature", "geometry": {"type": "Point", "coordinates": [-66.12113, 18.46124]}, "properties": {"seg_id": "PU021", "name": "Toa Baja / Cata\u00f1o", "island": "puerto_rico", "coast": "north", "length_m": 5000.0, "kg_per_m_total": 3.038, "kg_per_m_physical": 3.038, "tonnes_total": 15.192, "tonnes_by_day": [0.0, 0.0, 0.0, 0.428, 14.764], "h2s_kg_per_day": [0.0, 0.0, 0.0, 0.0, 0.0, 0.0, 0.268, 1.766, 1.964, 1.608, 1.317, 1.078, 0.882, 0.723, 0.592, 0.484, 0.397], "nh3_kg_per_day": [0.0, 0.0, 0.0, 0.0, 0.0, 0.0, 0.084, 0.552, 0.614, 0.502, 0.411, 0.337, 0.276, 0.226, 0.185, 0.151, 0.124], "h2s_peak_kg_day_km": 0.393, "risk_tier": "minimal", "exposure": {"ppm": 0.00476, "label": "faint odour", "odour_detect_ppm": 0.0005, "who_24h_ppm": 0.107, "atsdr_acute_mrl_ppm": 0.07, "osha_ceiling_ppm": 20.0}, "source": "physical"}}, {"type": "Feature", "geometry": {"type": "Point", "coordinates": [-66.0738, 18.46]}, "properties": {"seg_id": "PU022", "name": "San Juan / Condado", "island": "puerto_rico", "coast": "north", "length_m": 5000.0, "kg_per_m_total": 0.0, "kg_per_m_physical": 0.0, "tonnes_total": 0.0, "tonnes_by_day": [0.0, 0.0, 0.0, 0.0, 0.0], "h2s_kg_per_day": [0.0, 0.0, 0.0, 0.0, 0.0, 0.0, 0.0, 0.0, 0.0, 0.0, 0.0, 0.0, 0.0, 0.0, 0.0, 0.0, 0.0], "nh3_kg_per_day": [0.0, 0.0, 0.0, 0.0, 0.0, 0.0, 0.0, 0.0, 0.0, 0.0, 0.0, 0.0, 0.0, 0.0, 0.0, 0.0, 0.0], "h2s_peak_kg_day_km": 0.0, "risk_tier": "minimal", "exposure": {"ppm": 0.0, "label": "not detectable", "odour_detect_ppm": 0.0005, "who_24h_ppm": 0.107, "atsdr_acute_mrl_ppm": 0.07, "osha_ceiling_ppm": 20.0}, "source": "physical"}}, {"type": "Feature", "geometry": {"type": "Point", "coordinates": [-66.02644, 18.45949]}, "properties": {"seg_id": "PU023", "name": "San Juan / Condado", "island": "puerto_rico", "coast": "north", "length_m": 5000.0, "kg_per_m_total": 11.709, "kg_per_m_physical": 11.709, "tonnes_total": 58.547, "tonnes_by_day": [0.0, 0.0, 0.0, 7.335, 51.212], "h2s_kg_per_day": [0.0, 0.0, 0.0, 0.0, 0.0, 0.027, 1.037, 5.957, 7.716, 6.318, 5.173, 4.235, 3.467, 2.839, 2.324, 1.903, 1.558], "nh3_kg_per_day": [0.0, 0.0, 0.0, 0.0, 0.0, 0.008, 0.324, 1.862, 2.411, 1.974, 1.616, 1.323, 1.084, 0.887, 0.726, 0.595, 0.487], "h2s_peak_kg_day_km": 1.543, "risk_tier": "low", "exposure": {"ppm": 0.0047, "label": "faint odour", "odour_detect_ppm": 0.0005, "who_24h_ppm": 0.107, "atsdr_acute_mrl_ppm": 0.07, "osha_ceiling_ppm": 20.0}, "source": "physical"}}, {"type": "Feature", "geometry": {"type": "Point", "coordinates": [-65.97956, 18.45279]}, "properties": {"seg_id": "PU024", "name": "Isla Verde / Carolina", "island": "puerto_rico", "coast": "north", "length_m": 5000.0, "kg_per_m_total": 17.792, "kg_per_m_physical": 17.792, "tonnes_total": 88.961, "tonnes_by_day": [0.0, 0.0, 0.0, 5.387, 83.574], "h2s_kg_per_day": [0.0, 0.0, 0.0, 0.0, 0.0, 0.057, 1.093, 9.573, 11.715, 9.592, 7.853, 6.429, 5.264, 4.31, 3.529, 2.889, 2.365], "nh3_kg_per_day": [0.0, 0.0, 0.0, 0.0, 0.0, 0.018, 0.342, 2.991, 3.661, 2.997, 2.454, 2.009, 1.645, 1.347, 1.103, 0.903, 0.739], "h2s_peak_kg_day_km": 2.343, "risk_tier": "low", "exposure": {"ppm": 0.00471, "label": "faint odour", "odour_detect_ppm": 0.0005, "who_24h_ppm": 0.107, "atsdr_acute_mrl_ppm": 0.07, "osha_ceiling_ppm": 20.0}, "source": "physical"}}, {"type": "Feature", "geometry": {"type": "Point", "coordinates": [-65.93257, 18.44695]}, "properties": {"seg_id": "PU025", "name": "Isla Verde / Carolina", "island": "puerto_rico", "coast": "north", "length_m": 5000.0, "kg_per_m_total": 11.992, "kg_per_m_physical": 11.992, "tonnes_total": 59.959, "tonnes_by_day": [0.0, 0.0, 0.0, 4.219, 55.74], "h2s_kg_per_day": [0.0, 0.0, 0.0, 0.0, 0.0, 0.06, 1.298, 7.221, 7.651, 6.264, 5.129, 4.199, 3.438, 2.815, 2.304, 1.887, 1.545], "nh3_kg_per_day": [0.0, 0.0, 0.0, 0.0, 0.0, 0.019, 0.406, 2.256, 2.391, 1.958, 1.603, 1.312, 1.074, 0.88, 0.72, 0.59, 0.483], "h2s_peak_kg_day_km": 1.53, "risk_tier": "low", "exposure": {"ppm": 0.0048, "label": "faint odour", "odour_detect_ppm": 0.0005, "who_24h_ppm": 0.107, "atsdr_acute_mrl_ppm": 0.07, "osha_ceiling_ppm": 20.0}, "source": "physical"}}, {"type": "Feature", "geometry": {"type": "Point", "coordinates": [-65.88549, 18.44172]}, "properties": {"seg_id": "PU026", "name": "Lo\u00edza / Pi\u00f1ones", "island": "puerto_rico", "coast": "north", "length_m": 5000.0, "kg_per_m_total": 18.981, "kg_per_m_physical": 18.981, "tonnes_total": 94.906, "tonnes_by_day": [0.0, 0.0, 0.0, 4.234, 90.671], "h2s_kg_per_day": [0.0, 0.0, 0.0, 0.0, 0.0, 0.084, 2.402, 11.283, 12.076, 9.887, 8.095, 6.627, 5.426, 4.442, 3.637, 2.978, 2.438], "nh3_kg_per_day": [0.0, 0.0, 0.0, 0.0, 0.0, 0.026, 0.751, 3.526, 3.774, 3.09, 2.53, 2.071, 1.696, 1.388, 1.137, 0.931, 0.762], "h2s_peak_kg_day_km": 2.415, "risk_tier": "low", "exposure": {"ppm": 0.00481, "label": "faint odour", "odour_detect_ppm": 0.0005, "who_24h_ppm": 0.107, "atsdr_acute_mrl_ppm": 0.07, "osha_ceiling_ppm": 20.0}, "source": "physical"}}, {"type": "Feature", "geometry": {"type": "Point", "coordinates": [-65.83847, 18.43606]}, "properties": {"seg_id": "PU027", "name": "R\u00edo Grande", "island": "puerto_rico", "coast": "north", "length_m": 5000.0, "kg_per_m_total": 42.884, "kg_per_m_physical": 42.884, "tonnes_total": 214.42, "tonnes_by_day": [0.0, 0.0, 0.0, 30.975, 183.445], "h2s_kg_per_day": [0.0, 0.0, 0.0, 0.0, 0.0, 0.114, 5.375, 23.864, 27.601, 22.598, 18.502, 15.148, 12.402, 10.154, 8.313, 6.806, 5.573], "nh3_kg_per_day": [0.0, 0.0, 0.0, 0.0, 0.0, 0.036, 1.68, 7.457, 8.625, 7.062, 5.782, 4.734, 3.876, 3.173, 2.598, 2.127, 1.741], "h2s_peak_kg_day_km": 5.52, "risk_tier": "moderate", "exposure": {"ppm": 0.00478, "label": "faint odour", "odour_detect_ppm": 0.0005, "who_24h_ppm": 0.107, "atsdr_acute_mrl_ppm": 0.07, "osha_ceiling_ppm": 20.0}, "source": "physical"}}, {"type": "Feature", "geometry": {"type": "Point", "coordinates": [-65.79148, 18.43018]}, "properties": {"seg_id": "PU028", "name": "R\u00edo Grande", "island": "puerto_rico", "coast": "north", "length_m": 5000.0, "kg_per_m_total": 64.913, "kg_per_m_physical": 64.913, "tonnes_total": 324.563, "tonnes_by_day": [0.0, 0.0, 0.0, 42.07, 282.493], "h2s_kg_per_day": [0.0, 0.0, 0.0, 0.0, 0.0, 0.329, 8.698, 38.103, 41.29, 33.805, 27.677, 22.66, 18.553, 15.19, 12.436, 10.182, 8.336], "nh3_kg_per_day": [0.0, 0.0, 0.0, 0.0, 0.0, 0.103, 2.718, 11.907, 12.903, 10.564, 8.649, 7.081, 5.798, 4.747, 3.886, 3.182, 2.605], "h2s_peak_kg_day_km": 8.258, "risk_tier": "moderate", "exposure": {"ppm": 0.00481, "label": "faint odour", "odour_detect_ppm": 0.0005, "who_24h_ppm": 0.107, "atsdr_acute_mrl_ppm": 0.07, "osha_ceiling_ppm": 20.0}, "source": "physical"}}, {"type": "Feature", "geometry": {"type": "Point", "coordinates": [-65.74817, 18.41207]}, "properties": {"seg_id": "PU029", "name": "Luquillo", "island": "puerto_rico", "coast": "north", "length_m": 5000.0, "kg_per_m_total": 292.119, "kg_per_m_physical": 292.119, "tonnes_total": 1460.596, "tonnes_by_day": [0.0, 0.0, 0.0, 231.7, 1228.896], "h2s_kg_per_day": [0.0, 0.0, 0.0, 0.0, 0.0, 3.062, 60.811, 184.557, 179.225, 146.737, 120.138, 98.361, 80.531, 65.933, 53.982, 44.196, 36.185], "nh3_kg_per_day": [0.0, 0.0, 0.0, 0.0, 0.0, 0.957, 19.003, 57.674, 56.008, 45.855, 37.543, 30.738, 25.166, 20.604, 16.869, 13.811, 11.308], "h2s_peak_kg_day_km": 36.911, "risk_tier": "high", "exposure": {"ppm": 0.01795, "label": "faint odour", "odour_detect_ppm": 0.0005, "who_24h_ppm": 0.107, "atsdr_acute_mrl_ppm": 0.07, "osha_ceiling_ppm": 20.0}, "source": "physical"}}, {"type": "Feature", "geometry": {"type": "Point", "coordinates": [-65.70445, 18.39482]}, "properties": {"seg_id": "PU030", "name": "Luquillo", "island": "puerto_rico", "coast": "north", "length_m": 5000.0, "kg_per_m_total": 127.862, "kg_per_m_physical": 127.862, "tonnes_total": 639.309, "tonnes_by_day": [0.0, 0.0, 2.357, 112.58, 524.372], "h2s_kg_per_day": [0.0, 0.0, 0.0, 0.0, 0.0, 1.606, 18.293, 71.006, 81.68, 66.874, 54.752, 44.827, 36.701, 30.049, 24.602, 20.142, 16.491], "nh3_kg_per_day": [0.0, 0.0, 0.0, 0.0, 0.0, 0.502, 5.717, 22.189, 25.525, 20.898, 17.11, 14.008, 11.469, 9.39, 7.688, 6.294, 5.153], "h2s_peak_kg_day_km": 16.336, "risk_tier": "high", "exposure": {"ppm": 0.0081, "label": "faint odour", "odour_detect_ppm": 0.0005, "who_24h_ppm": 0.107, "atsdr_acute_mrl_ppm": 0.07, "osha_ceiling_ppm": 20.0}, "source": "physical"}}, {"type": "Feature", "geometry": {"type": "Point", "coordinates": [-65.65978, 18.37984]}, "properties": {"seg_id": "PU031", "name": "Fajardo / Las Cabezas", "island": "puerto_rico", "coast": "north", "length_m": 5000.0, "kg_per_m_total": 294.821, "kg_per_m_physical": 294.821, "tonnes_total": 1474.105, "tonnes_by_day": [0.0, 0.0, 7.365, 446.841, 1019.9], "h2s_kg_per_day": [0.0, 0.0, 0.0, 0.0, 0.0, 10.631, 83.694, 186.485, 175.43, 143.63, 117.594, 96.278, 78.826, 64.537, 52.838, 43.26, 35.419], "nh3_kg_per_day": [0.0, 0.0, 0.0, 0.0, 0.0, 3.322, 26.154, 58.277, 54.822, 44.884, 36.748, 30.087, 24.633, 20.168, 16.512, 13.519, 11.068], "h2s_peak_kg_day_km": 37.297, "risk_tier": "high", "exposure": {"ppm": 0.01772, "label": "faint odour", "odour_detect_ppm": 0.0005, "who_24h_ppm": 0.107, "atsdr_acute_mrl_ppm": 0.07, "osha_ceiling_ppm": 20.0}, "source": "physical"}}, {"type": "Feature", "geometry": {"type": "Point", "coordinates": [-65.62261, 18.35196]}, "properties": {"seg_id": "PU032", "name": "Fajardo / Las Cabezas", "island": "puerto_rico", "coast": "north", "length_m": 5000.0, "kg_per_m_total": 203.058, "kg_per_m_physical": 203.058, "tonnes_total": 1015.29, "tonnes_by_day": [0.0, 0.0, 19.793, 254.314, 741.182], "h2s_kg_per_day": [0.0, 0.0, 0.0, 0.0, 0.024, 5.636, 41.292, 113.307, 126.836, 103.845, 85.021, 69.609, 56.991, 46.66, 38.202, 31.277, 25.608], "nh3_kg_per_day": [0.0, 0.0, 0.0, 0.0, 0.007, 1.761, 12.904, 35.408, 39.636, 32.451, 26.569, 21.753, 17.81, 14.581, 11.938, 9.774, 8.002], "h2s_peak_kg_day_km": 25.367, "risk_tier": "high", "exposure": {"ppm": 0.01258, "label": "faint odour", "odour_detect_ppm": 0.0005, "who_24h_ppm": 0.107, "atsdr_acute_mrl_ppm": 0.07, "osha_ceiling_ppm": 20.0}, "source": "physical"}}, {"type": "Feature", "geometry": {"type": "Point", "coordinates": [-65.62, 18.30819]}, "properties": {"seg_id": "PU033", "name": "Fajardo / Sardinera", "island": "puerto_rico", "coast": "east", "length_m": 5000.0, "kg_per_m_total": 169.344, "kg_per_m_physical": 169.344, "tonnes_total": 846.719, "tonnes_by_day": [0.0, 0.0, 15.866, 417.664, 413.189], "h2s_kg_per_day": [0.0, 0.0, 0.0, 0.0, 0.056, 4.281, 54.734, 106.717, 99.952, 81.834, 67.0, 54.855, 44.911, 36.77, 30.105, 24.648, 20.18], "nh3_kg_per_day": [0.0, 0.0, 0.0, 0.0, 0.017, 1.338, 17.104, 33.349, 31.235, 25.573, 20.937, 17.142, 14.035, 11.491, 9.408, 7.702, 6.306], "h2s_peak_kg_day_km": 21.343, "risk_tier": "high", "exposure": {"ppm": 0.01013, "label": "faint odour", "odour_detect_ppm": 0.0005, "who_24h_ppm": 0.107, "atsdr_acute_mrl_ppm": 0.07, "osha_ceiling_ppm": 20.0}, "source": "physical"}}, {"type": "Feature", "geometry": {"type": "Point", "coordinates": [-65.63661, 18.26678]}, "properties": {"seg_id": "PU034", "name": "Ceiba / Roosevelt Roads", "island": "puerto_rico", "coast": "east", "length_m": 5000.0, "kg_per_m_total": 105.012, "kg_per_m_physical": 105.012, "tonnes_total": 525.06, "tonnes_by_day": [0.0, 0.0, 2.9, 97.649, 424.512], "h2s_kg_per_day": [0.0, 0.0, 0.0, 0.0, 0.025, 2.027, 18.24, 63.311, 65.462, 53.596, 43.881, 35.926, 29.414, 24.082, 19.717, 16.143, 13.217], "nh3_kg_per_day": [0.0, 0.0, 0.0, 0.0, 0.008, 0.633, 5.7, 19.785, 20.457, 16.749, 13.713, 11.227, 9.192, 7.526, 6.162, 5.045, 4.13], "h2s_peak_kg_day_km": 13.092, "risk_tier": "high", "exposure": {"ppm": 0.00655, "label": "faint odour", "odour_detect_ppm": 0.0005, "who_24h_ppm": 0.107, "atsdr_acute_mrl_ppm": 0.07, "osha_ceiling_ppm": 20.0}, "source": "physical"}}, {"type": "Feature", "geometry": {"type": "Point", "coordinates": [-65.65799, 18.22669]}, "properties": {"seg_id": "PU035", "name": "Ceiba / Roosevelt Roads", "island": "puerto_rico", "coast": "east", "length_m": 5000.0, "kg_per_m_total": 14.497, "kg_per_m_physical": 14.497, "tonnes_total": 72.486, "tonnes_by_day": [0.0, 0.0, 0.0, 0.0, 72.486], "h2s_kg_per_day": [0.0, 0.0, 0.0, 0.0, 0.0, 0.0, 1.137, 8.56, 9.372, 7.673, 6.282, 5.143, 4.211, 3.448, 2.823, 2.311, 1.892], "nh3_kg_per_day": [0.0, 0.0, 0.0, 0.0, 0.0, 0.0, 0.355, 2.675, 2.929, 2.398, 1.963, 1.607, 1.316, 1.077, 0.882, 0.722, 0.591], "h2s_peak_kg_day_km": 1.874, "risk_tier": "low", "exposure": {"ppm": 0.00476, "label": "faint odour", "odour_detect_ppm": 0.0005, "who_24h_ppm": 0.107, "atsdr_acute_mrl_ppm": 0.07, "osha_ceiling_ppm": 20.0}, "source": "physical"}}, {"type": "Feature", "geometry": {"type": "Point", "coordinates": [-65.68174, 18.18782]}, "properties": {"seg_id": "PU036", "name": "Naguabo", "island": "puerto_rico", "coast": "east", "length_m": 5000.0, "kg_per_m_total": 25.989, "kg_per_m_physical": 25.989, "tonnes_total": 129.945, "tonnes_by_day": [0.0, 0.0, 0.0, 0.118, 129.827], "h2s_kg_per_day": [0.0, 0.0, 0.0, 0.0, 0.0, 0.001, 0.237, 11.898, 17.752, 14.534, 11.899, 9.742, 7.976, 6.53, 5.347, 4.378, 3.584], "nh3_kg_per_day": [0.0, 0.0, 0.0, 0.0, 0.0, 0.0, 0.074, 3.718, 5.547, 4.542, 3.719, 3.044, 2.493, 2.041, 1.671, 1.368, 1.12], "h2s_peak_kg_day_km": 3.55, "risk_tier": "moderate", "exposure": {"ppm": 0.0046, "label": "faint odour", "odour_detect_ppm": 0.0005, "who_24h_ppm": 0.107, "atsdr_acute_mrl_ppm": 0.07, "osha_ceiling_ppm": 20.0}, "source": "physical"}}, {"type": "Feature", "geometry": {"type": "Point", "coordinates": [-65.71038, 18.15202]}, "properties": {"seg_id": "PU037", "name": "Naguabo", "island": "puerto_rico", "coast": "east", "length_m": 5000.0, "kg_per_m_total": 0.0, "kg_per_m_physical": 0.0, "tonnes_total": 0.0, "tonnes_by_day": [0.0, 0.0, 0.0, 0.0, 0.0], "h2s_kg_per_day": [0.0, 0.0, 0.0, 0.0, 0.0, 0.0, 0.0, 0.0, 0.0, 0.0, 0.0, 0.0, 0.0, 0.0, 0.0, 0.0, 0.0], "nh3_kg_per_day": [0.0, 0.0, 0.0, 0.0, 0.0, 0.0, 0.0, 0.0, 0.0, 0.0, 0.0, 0.0, 0.0, 0.0, 0.0, 0.0, 0.0], "h2s_peak_kg_day_km": 0.0, "risk_tier": "minimal", "exposure": {"ppm": 0.0, "label": "not detectable", "odour_detect_ppm": 0.0005, "who_24h_ppm": 0.107, "atsdr_acute_mrl_ppm": 0.07, "osha_ceiling_ppm": 20.0}, "source": "physical"}}, {"type": "Feature", "geometry": {"type": "Point", "coordinates": [-65.73902, 18.11623]}, "properties": {"seg_id": "PU038", "name": "Humacao / Punta Santiago", "island": "puerto_rico", "coast": "east", "length_m": 5000.0, "kg_per_m_total": 0.0, "kg_per_m_physical": 0.0, "tonnes_total": 0.0, "tonnes_by_day": [0.0, 0.0, 0.0, 0.0, 0.0], "h2s_kg_per_day": [0.0, 0.0, 0.0, 0.0, 0.0, 0.0, 0.0, 0.0, 0.0, 0.0, 0.0, 0.0, 0.0, 0.0, 0.0, 0.0, 0.0], "nh3_kg_per_day": [0.0, 0.0, 0.0, 0.0, 0.0, 0.0, 0.0, 0.0, 0.0, 0.0, 0.0, 0.0, 0.0, 0.0, 0.0, 0.0, 0.0], "h2s_peak_kg_day_km": 0.0, "risk_tier": "minimal", "exposure": {"ppm": 0.0, "label": "not detectable", "odour_detect_ppm": 0.0005, "who_24h_ppm": 0.107, "atsdr_acute_mrl_ppm": 0.07, "osha_ceiling_ppm": 20.0}, "source": "physical"}}, {"type": "Feature", "geometry": {"type": "Point", "coordinates": [-65.76626, 18.07956]}, "properties": {"seg_id": "PU039", "name": "Humacao / Punta Santiago", "island": "puerto_rico", "coast": "east", "length_m": 5000.0, "kg_per_m_total": 0.0, "kg_per_m_physical": 0.0, "tonnes_total": 0.0, "tonnes_by_day": [0.0, 0.0, 0.0, 0.0, 0.0], "h2s_kg_per_day": [0.0, 0.0, 0.0, 0.0, 0.0, 0.0, 0.0, 0.0, 0.0, 0.0, 0.0, 0.0, 0.0, 0.0, 0.0, 0.0, 0.0], "nh3_kg_per_day": [0.0, 0.0, 0.0, 0.0, 0.0, 0.0, 0.0, 0.0, 0.0, 0.0, 0.0, 0.0, 0.0, 0.0, 0.0, 0.0, 0.0], "h2s_peak_kg_day_km": 0.0, "risk_tier": "minimal", "exposure": {"ppm": 0.0, "label": "not detectable", "odour_detect_ppm": 0.0005, "who_24h_ppm": 0.107, "atsdr_acute_mrl_ppm": 0.07, "osha_ceiling_ppm": 20.0}, "source": "physical"}}, {"type": "Feature", "geometry": {"type": "Point", "coordinates": [-65.7897, 18.0405]}, "properties": {"seg_id": "PU040", "name": "Yabucoa", "island": "puerto_rico", "coast": "east", "length_m": 5000.0, "kg_per_m_total": 0.0, "kg_per_m_physical": 0.0, "tonnes_total": 0.0, "tonnes_by_day": [0.0, 0.0, 0.0, 0.0, 0.0], "h2s_kg_per_day": [0.0, 0.0, 0.0, 0.0, 0.0, 0.0, 0.0, 0.0, 0.0, 0.0, 0.0, 0.0, 0.0, 0.0, 0.0, 0.0, 0.0], "nh3_kg_per_day": [0.0, 0.0, 0.0, 0.0, 0.0, 0.0, 0.0, 0.0, 0.0, 0.0, 0.0, 0.0, 0.0, 0.0, 0.0, 0.0, 0.0], "h2s_peak_kg_day_km": 0.0, "risk_tier": "minimal", "exposure": {"ppm": 0.0, "label": "not detectable", "odour_detect_ppm": 0.0005, "who_24h_ppm": 0.107, "atsdr_acute_mrl_ppm": 0.07, "osha_ceiling_ppm": 20.0}, "source": "physical"}}, {"type": "Feature", "geometry": {"type": "Point", "coordinates": [-65.8251, 18.01075]}, "properties": {"seg_id": "PU041", "name": "Yabucoa", "island": "puerto_rico", "coast": "south", "length_m": 5000.0, "kg_per_m_total": 0.0, "kg_per_m_physical": 0.0, "tonnes_total": 0.0, "tonnes_by_day": [0.0, 0.0, 0.0, 0.0, 0.0], "h2s_kg_per_day": [0.0, 0.0, 0.0, 0.0, 0.0, 0.0, 0.0, 0.0, 0.0, 0.0, 0.0, 0.0, 0.0, 0.0, 0.0, 0.0, 0.0], "nh3_kg_per_day": [0.0, 0.0, 0.0, 0.0, 0.0, 0.0, 0.0, 0.0, 0.0, 0.0, 0.0, 0.0, 0.0, 0.0, 0.0, 0.0, 0.0], "h2s_peak_kg_day_km": 0.0, "risk_tier": "minimal", "exposure": {"ppm": 0.0, "label": "not detectable", "odour_detect_ppm": 0.0005, "who_24h_ppm": 0.107, "atsdr_acute_mrl_ppm": 0.07, "osha_ceiling_ppm": 20.0}, "source": "physical"}}, {"type": "Feature", "geometry": {"type": "Point", "coordinates": [-65.86319, 17.98505]}, "properties": {"seg_id": "PU042", "name": "Maunabo / Punta Tuna", "island": "puerto_rico", "coast": "south", "length_m": 5000.0, "kg_per_m_total": 1.006, "kg_per_m_physical": 1.006, "tonnes_total": 5.031, "tonnes_by_day": [0.0, 0.0, 5.031, 0.0, 0.0], "h2s_kg_per_day": [0.0, 0.0, 0.0, 0.0, 0.236, 0.71, 0.601, 0.492, 0.403, 0.33, 0.27, 0.221, 0.181, 0.148, 0.121, 0.099, 0.081], "nh3_kg_per_day": [0.0, 0.0, 0.0, 0.0, 0.074, 0.222, 0.188, 0.154, 0.126, 0.103, 0.084, 0.069, 0.057, 0.046, 0.038, 0.031, 0.025], "h2s_peak_kg_day_km": 0.142, "risk_tier": "minimal", "exposure": {"ppm": 0.00804, "label": "faint odour", "odour_detect_ppm": 0.0005, "who_24h_ppm": 0.107, "atsdr_acute_mrl_ppm": 0.07, "osha_ceiling_ppm": 20.0}, "source": "physical"}}, {"type": "Feature", "geometry": {"type": "Point", "coordinates": [-65.90717, 17.96856]}, "properties": {"seg_id": "PU043", "name": "Maunabo / Punta Tuna", "island": "puerto_rico", "coast": "south", "length_m": 5000.0, "kg_per_m_total": 1.487, "kg_per_m_physical": 1.487, "tonnes_total": 7.435, "tonnes_by_day": [0.0, 0.0, 3.0, 4.436, 0.0], "h2s_kg_per_day": [0.0, 0.0, 0.0, 0.0, 0.003, 0.473, 1.017, 0.871, 0.713, 0.584, 0.478, 0.391, 0.32, 0.262, 0.215, 0.176, 0.144], "nh3_kg_per_day": [0.0, 0.0, 0.0, 0.0, 0.001, 0.148, 0.318, 0.272, 0.223, 0.182, 0.149, 0.122, 0.1, 0.082, 0.067, 0.055, 0.045], "h2s_peak_kg_day_km": 0.203, "risk_tier": "minimal", "exposure": {"ppm": 0.00619, "label": "faint odour", "odour_detect_ppm": 0.0005, "who_24h_ppm": 0.107, "atsdr_acute_mrl_ppm": 0.07, "osha_ceiling_ppm": 20.0}, "source": "physical"}}, {"type": "Feature", "geometry": {"type": "Point", "coordinates": [-65.95258, 17.95749]}, "properties": {"seg_id": "PU044", "name": "Patillas", "island": "puerto_rico", "coast": "south", "length_m": 5000.0, "kg_per_m_total": 0.029, "kg_per_m_physical": 0.029, "tonnes_total": 0.145, "tonnes_by_day": [0.0, 0.0, 0.0, 0.145, 0.0], "h2s_kg_per_day": [0.0, 0.0, 0.0, 0.0, 0.0, 0.0, 0.014, 0.02, 0.016, 0.013, 0.011, 0.009, 0.007, 0.006, 0.005, 0.004, 0.003], "nh3_kg_per_day": [0.0, 0.0, 0.0, 0.0, 0.0, 0.0, 0.004, 0.006, 0.005, 0.004, 0.003, 0.003, 0.002, 0.002, 0.002, 0.001, 0.001], "h2s_peak_kg_day_km": 0.004, "risk_tier": "minimal", "exposure": {"ppm": 0.00533, "label": "faint odour", "odour_detect_ppm": 0.0005, "who_24h_ppm": 0.107, "atsdr_acute_mrl_ppm": 0.07, "osha_ceiling_ppm": 20.0}, "source": "physical"}}, {"type": "Feature", "geometry": {"type": "Point", "coordinates": [-65.99953, 17.95227]}, "properties": {"seg_id": "PU045", "name": "Patillas", "island": "puerto_rico", "coast": "south", "length_m": 5000.0, "kg_per_m_total": 1.607, "kg_per_m_physical": 1.607, "tonnes_total": 8.036, "tonnes_by_day": [0.0, 0.0, 1.678, 5.823, 0.535], "h2s_kg_per_day": [0.0, 0.0, 0.0, 0.0, 0.014, 0.367, 0.999, 0.983, 0.806, 0.659, 0.54, 0.442, 0.362, 0.296, 0.243, 0.199, 0.163], "nh3_kg_per_day": [0.0, 0.0, 0.0, 0.0, 0.005, 0.115, 0.312, 0.307, 0.252, 0.206, 0.169, 0.138, 0.113, 0.093, 0.076, 0.062, 0.051], "h2s_peak_kg_day_km": 0.2, "risk_tier": "minimal", "exposure": {"ppm": 0.0059, "label": "faint odour", "odour_detect_ppm": 0.0005, "who_24h_ppm": 0.107, "atsdr_acute_mrl_ppm": 0.07, "osha_ceiling_ppm": 20.0}, "source": "physical"}}, {"type": "Feature", "geometry": {"type": "Point", "coordinates": [-66.04647, 17.94706]}, "properties": {"seg_id": "PU046", "name": "Arroyo", "island": "puerto_rico", "coast": "south", "length_m": 5000.0, "kg_per_m_total": 2.692, "kg_per_m_physical": 2.692, "tonnes_total": 13.461, "tonnes_by_day": [0.0, 0.0, 2.262, 9.274, 1.925], "h2s_kg_per_day": [0.0, 0.0, 0.0, 0.0, 0.064, 0.631, 1.655, 1.634, 1.344, 1.101, 0.901, 0.738, 0.604, 0.495, 0.405, 0.332, 0.271], "nh3_kg_per_day": [0.0, 0.0, 0.0, 0.0, 0.02, 0.197, 0.517, 0.511, 0.42, 0.344, 0.282, 0.231, 0.189, 0.155, 0.127, 0.104, 0.085], "h2s_peak_kg_day_km": 0.331, "risk_tier": "minimal", "exposure": {"ppm": 0.00592, "label": "faint odour", "odour_detect_ppm": 0.0005, "who_24h_ppm": 0.107, "atsdr_acute_mrl_ppm": 0.07, "osha_ceiling_ppm": 20.0}, "source": "physical"}}, {"type": "Feature", "geometry": {"type": "Point", "coordinates": [-66.09342, 17.94184]}, "properties": {"seg_id": "PU047", "name": "Arroyo", "island": "puerto_rico", "coast": "south", "length_m": 5000.0, "kg_per_m_total": 2.285, "kg_per_m_physical": 2.285, "tonnes_total": 11.425, "tonnes_by_day": [0.0, 0.0, 5.026, 5.941, 0.458], "h2s_kg_per_day": [0.0, 0.0, 0.0, 0.0, 0.05, 0.774, 1.463, 1.332, 1.098, 0.899, 0.736, 0.603, 0.493, 0.404, 0.331, 0.271, 0.222], "nh3_kg_per_day": [0.0, 0.0, 0.0, 0.0, 0.016, 0.242, 0.457, 0.416, 0.343, 0.281, 0.23, 0.188, 0.154, 0.126, 0.103, 0.085, 0.069], "h2s_peak_kg_day_km": 0.293, "risk_tier": "minimal", "exposure": {"ppm": 0.00618, "label": "faint odour", "odour_detect_ppm": 0.0005, "who_24h_ppm": 0.107, "atsdr_acute_mrl_ppm": 0.07, "osha_ceiling_ppm": 20.0}, "source": "physical"}}, {"type": "Feature", "geometry": {"type": "Point", "coordinates": [-66.14057, 17.94]}, "properties": {"seg_id": "PU048", "name": "Guayama / Punta Pozuelo", "island": "puerto_rico", "coast": "south", "length_m": 5000.0, "kg_per_m_total": 0.0, "kg_per_m_physical": 0.0, "tonnes_total": 0.0, "tonnes_by_day": [0.0, 0.0, 0.0, 0.0, 0.0], "h2s_kg_per_day": [0.0, 0.0, 0.0, 0.0, 0.0, 0.0, 0.0, 0.0, 0.0, 0.0, 0.0, 0.0, 0.0, 0.0, 0.0, 0.0, 0.0], "nh3_kg_per_day": [0.0, 0.0, 0.0, 0.0, 0.0, 0.0, 0.0, 0.0, 0.0, 0.0, 0.0, 0.0, 0.0, 0.0, 0.0, 0.0, 0.0], "h2s_peak_kg_day_km": 0.0, "risk_tier": "minimal", "exposure": {"ppm": 0.0, "label": "not detectable", "odour_detect_ppm": 0.0005, "who_24h_ppm": 0.107, "atsdr_acute_mrl_ppm": 0.07, "osha_ceiling_ppm": 20.0}, "source": "physical"}}, {"type": "Feature", "geometry": {"type": "Point", "coordinates": [-66.18784, 17.94]}, "properties": {"seg_id": "PU049", "name": "Guayama / Punta Pozuelo", "island": "puerto_rico", "coast": "south", "length_m": 5000.0, "kg_per_m_total": 0.0, "kg_per_m_physical": 0.0, "tonnes_total": 0.0, "tonnes_by_day": [0.0, 0.0, 0.0, 0.0, 0.0], "h2s_kg_per_day": [0.0, 0.0, 0.0, 0.0, 0.0, 0.0, 0.0, 0.0, 0.0, 0.0, 0.0, 0.0, 0.0, 0.0, 0.0, 0.0, 0.0], "nh3_kg_per_day": [0.0, 0.0, 0.0, 0.0, 0.0, 0.0, 0.0, 0.0, 0.0, 0.0, 0.0, 0.0, 0.0, 0.0, 0.0, 0.0, 0.0], "h2s_peak_kg_day_km": 0.0, "risk_tier": "minimal", "exposure": {"ppm": 0.0, "label": "not detectable", "odour_detect_ppm": 0.0005, "who_24h_ppm": 0.107, "atsdr_acute_mrl_ppm": 0.07, "osha_ceiling_ppm": 20.0}, "source": "physical"}}, {"type": "Feature", "geometry": {"type": "Point", "coordinates": [-66.2351, 17.94]}, "properties": {"seg_id": "PU050", "name": "Salinas", "island": "puerto_rico", "coast": "south", "length_m": 5000.0, "kg_per_m_total": 0.0, "kg_per_m_physical": 0.0, "tonnes_total": 0.0, "tonnes_by_day": [0.0, 0.0, 0.0, 0.0, 0.0], "h2s_kg_per_day": [0.0, 0.0, 0.0, 0.0, 0.0, 0.0, 0.0, 0.0, 0.0, 0.0, 0.0, 0.0, 0.0, 0.0, 0.0, 0.0, 0.0], "nh3_kg_per_day": [0.0, 0.0, 0.0, 0.0, 0.0, 0.0, 0.0, 0.0, 0.0, 0.0, 0.0, 0.0, 0.0, 0.0, 0.0, 0.0, 0.0], "h2s_peak_kg_day_km": 0.0, "risk_tier": "minimal", "exposure": {"ppm": 0.0, "label": "not detectable", "odour_detect_ppm": 0.0005, "who_24h_ppm": 0.107, "atsdr_acute_mrl_ppm": 0.07, "osha_ceiling_ppm": 20.0}, "source": "physical"}}, {"type": "Feature", "geometry": {"type": "Point", "coordinates": [-66.28236, 17.94]}, "properties": {"seg_id": "PU051", "name": "Salinas", "island": "puerto_rico", "coast": "south", "length_m": 5000.0, "kg_per_m_total": 0.0, "kg_per_m_physical": 0.0, "tonnes_total": 0.0, "tonnes_by_day": [0.0, 0.0, 0.0, 0.0, 0.0], "h2s_kg_per_day": [0.0, 0.0, 0.0, 0.0, 0.0, 0.0, 0.0, 0.0, 0.0, 0.0, 0.0, 0.0, 0.0, 0.0, 0.0, 0.0, 0.0], "nh3_kg_per_day": [0.0, 0.0, 0.0, 0.0, 0.0, 0.0, 0.0, 0.0, 0.0, 0.0, 0.0, 0.0, 0.0, 0.0, 0.0, 0.0, 0.0], "h2s_peak_kg_day_km": 0.0, "risk_tier": "minimal", "exposure": {"ppm": 0.0, "label": "not detectable", "odour_detect_ppm": 0.0005, "who_24h_ppm": 0.107, "atsdr_acute_mrl_ppm": 0.07, "osha_ceiling_ppm": 20.0}, "source": "physical"}}, {"type": "Feature", "geometry": {"type": "Point", "coordinates": [-66.32963, 17.94]}, "properties": {"seg_id": "PU052", "name": "Salinas", "island": "puerto_rico", "coast": "south", "length_m": 5000.0, "kg_per_m_total": 0.0, "kg_per_m_physical": 0.0, "tonnes_total": 0.0, "tonnes_by_day": [0.0, 0.0, 0.0, 0.0, 0.0], "h2s_kg_per_day": [0.0, 0.0, 0.0, 0.0, 0.0, 0.0, 0.0, 0.0, 0.0, 0.0, 0.0, 0.0, 0.0, 0.0, 0.0, 0.0, 0.0], "nh3_kg_per_day": [0.0, 0.0, 0.0, 0.0, 0.0, 0.0, 0.0, 0.0, 0.0, 0.0, 0.0, 0.0, 0.0, 0.0, 0.0, 0.0, 0.0], "h2s_peak_kg_day_km": 0.0, "risk_tier": "minimal", "exposure": {"ppm": 0.0, "label": "not detectable", "odour_detect_ppm": 0.0005, "who_24h_ppm": 0.107, "atsdr_acute_mrl_ppm": 0.07, "osha_ceiling_ppm": 20.0}, "source": "physical"}}, {"type": "Feature", "geometry": {"type": "Point", "coordinates": [-66.37689, 17.94]}, "properties": {"seg_id": "PU053", "name": "Santa Isabel", "island": "puerto_rico", "coast": "south", "length_m": 5000.0, "kg_per_m_total": 0.0, "kg_per_m_physical": 0.0, "tonnes_total": 0.0, "tonnes_by_day": [0.0, 0.0, 0.0, 0.0, 0.0], "h2s_kg_per_day": [0.0, 0.0, 0.0, 0.0, 0.0, 0.0, 0.0, 0.0, 0.0, 0.0, 0.0, 0.0, 0.0, 0.0, 0.0, 0.0, 0.0], "nh3_kg_per_day": [0.0, 0.0, 0.0, 0.0, 0.0, 0.0, 0.0, 0.0, 0.0, 0.0, 0.0, 0.0, 0.0, 0.0, 0.0, 0.0, 0.0], "h2s_peak_kg_day_km": 0.0, "risk_tier": "minimal", "exposure": {"ppm": 0.0, "label": "not detectable", "odour_detect_ppm": 0.0005, "who_24h_ppm": 0.107, "atsdr_acute_mrl_ppm": 0.07, "osha_ceiling_ppm": 20.0}, "source": "physical"}}, {"type": "Feature", "geometry": {"type": "Point", "coordinates": [-66.42409, 17.94128]}, "properties": {"seg_id": "PU054", "name": "Santa Isabel", "island": "puerto_rico", "coast": "south", "length_m": 5000.0, "kg_per_m_total": 0.0, "kg_per_m_physical": 0.0, "tonnes_total": 0.0, "tonnes_by_day": [0.0, 0.0, 0.0, 0.0, 0.0], "h2s_kg_per_day": [0.0, 0.0, 0.0, 0.0, 0.0, 0.0, 0.0, 0.0, 0.0, 0.0, 0.0, 0.0, 0.0, 0.0, 0.0, 0.0, 0.0], "nh3_kg_per_day": [0.0, 0.0, 0.0, 0.0, 0.0, 0.0, 0.0, 0.0, 0.0, 0.0, 0.0, 0.0, 0.0, 0.0, 0.0, 0.0, 0.0], "h2s_peak_kg_day_km": 0.0, "risk_tier": "minimal", "exposure": {"ppm": 0.0, "label": "not detectable", "odour_detect_ppm": 0.0005, "who_24h_ppm": 0.107, "atsdr_acute_mrl_ppm": 0.07, "osha_ceiling_ppm": 20.0}, "source": "physical"}}, {"type": "Feature", "geometry": {"type": "Point", "coordinates": [-66.47114, 17.94556]}, "properties": {"seg_id": "PU055", "name": "Juana D\u00edaz", "island": "puerto_rico", "coast": "south", "length_m": 5000.0, "kg_per_m_total": 0.0, "kg_per_m_physical": 0.0, "tonnes_total": 0.0, "tonnes_by_day": [0.0, 0.0, 0.0, 0.0, 0.0], "h2s_kg_per_day": [0.0, 0.0, 0.0, 0.0, 0.0, 0.0, 0.0, 0.0, 0.0, 0.0, 0.0, 0.0, 0.0, 0.0, 0.0, 0.0, 0.0], "nh3_kg_per_day": [0.0, 0.0, 0.0, 0.0, 0.0, 0.0, 0.0, 0.0, 0.0, 0.0, 0.0, 0.0, 0.0, 0.0, 0.0, 0.0, 0.0], "h2s_peak_kg_day_km": 0.0, "risk_tier": "minimal", "exposure": {"ppm": 0.0, "label": "not detectable", "odour_detect_ppm": 0.0005, "who_24h_ppm": 0.107, "atsdr_acute_mrl_ppm": 0.07, "osha_ceiling_ppm": 20.0}, "source": "physical"}}, {"type": "Feature", "geometry": {"type": "Point", "coordinates": [-66.5182, 17.94984]}, "properties": {"seg_id": "PU056", "name": "Juana D\u00edaz", "island": "puerto_rico", "coast": "south", "length_m": 5000.0, "kg_per_m_total": 0.0, "kg_per_m_physical": 0.0, "tonnes_total": 0.0, "tonnes_by_day": [0.0, 0.0, 0.0, 0.0, 0.0], "h2s_kg_per_day": [0.0, 0.0, 0.0, 0.0, 0.0, 0.0, 0.0, 0.0, 0.0, 0.0, 0.0, 0.0, 0.0, 0.0, 0.0, 0.0, 0.0], "nh3_kg_per_day": [0.0, 0.0, 0.0, 0.0, 0.0, 0.0, 0.0, 0.0, 0.0, 0.0, 0.0, 0.0, 0.0, 0.0, 0.0, 0.0, 0.0], "h2s_peak_kg_day_km": 0.0, "risk_tier": "minimal", "exposure": {"ppm": 0.0, "label": "not detectable", "odour_detect_ppm": 0.0005, "who_24h_ppm": 0.107, "atsdr_acute_mrl_ppm": 0.07, "osha_ceiling_ppm": 20.0}, "source": "physical"}}, {"type": "Feature", "geometry": {"type": "Point", "coordinates": [-66.56521, 17.95452]}, "properties": {"seg_id": "PU057", "name": "Ponce", "island": "puerto_rico", "coast": "south", "length_m": 5000.0, "kg_per_m_total": 0.0, "kg_per_m_physical": 0.0, "tonnes_total": 0.0, "tonnes_by_day": [0.0, 0.0, 0.0, 0.0, 0.0], "h2s_kg_per_day": [0.0, 0.0, 0.0, 0.0, 0.0, 0.0, 0.0, 0.0, 0.0, 0.0, 0.0, 0.0, 0.0, 0.0, 0.0, 0.0, 0.0], "nh3_kg_per_day": [0.0, 0.0, 0.0, 0.0, 0.0, 0.0, 0.0, 0.0, 0.0, 0.0, 0.0, 0.0, 0.0, 0.0, 0.0, 0.0, 0.0], "h2s_peak_kg_day_km": 0.0, "risk_tier": "minimal", "exposure": {"ppm": 0.0, "label": "not detectable", "odour_detect_ppm": 0.0005, "who_24h_ppm": 0.107, "atsdr_acute_mrl_ppm": 0.07, "osha_ceiling_ppm": 20.0}, "source": "physical"}}, {"type": "Feature", "geometry": {"type": "Point", "coordinates": [-66.61221, 17.95922]}, "properties": {"seg_id": "PU058", "name": "Ponce", "island": "puerto_rico", "coast": "south", "length_m": 5000.0, "kg_per_m_total": 0.0, "kg_per_m_physical": 0.0, "tonnes_total": 0.0, "tonnes_by_day": [0.0, 0.0, 0.0, 0.0, 0.0], "h2s_kg_per_day": [0.0, 0.0, 0.0, 0.0, 0.0, 0.0, 0.0, 0.0, 0.0, 0.0, 0.0, 0.0, 0.0, 0.0, 0.0, 0.0, 0.0], "nh3_kg_per_day": [0.0, 0.0, 0.0, 0.0, 0.0, 0.0, 0.0, 0.0, 0.0, 0.0, 0.0, 0.0, 0.0, 0.0, 0.0, 0.0, 0.0], "h2s_peak_kg_day_km": 0.0, "risk_tier": "minimal", "exposure": {"ppm": 0.0, "label": "not detectable", "odour_detect_ppm": 0.0005, "who_24h_ppm": 0.107, "atsdr_acute_mrl_ppm": 0.07, "osha_ceiling_ppm": 20.0}, "source": "physical"}}, {"type": "Feature", "geometry": {"type": "Point", "coordinates": [-66.65944, 17.96]}, "properties": {"seg_id": "PU059", "name": "Ponce", "island": "puerto_rico", "coast": "south", "length_m": 5000.0, "kg_per_m_total": 0.0, "kg_per_m_physical": 0.0, "tonnes_total": 0.0, "tonnes_by_day": [0.0, 0.0, 0.0, 0.0, 0.0], "h2s_kg_per_day": [0.0, 0.0, 0.0, 0.0, 0.0, 0.0, 0.0, 0.0, 0.0, 0.0, 0.0, 0.0, 0.0, 0.0, 0.0, 0.0, 0.0], "nh3_kg_per_day": [0.0, 0.0, 0.0, 0.0, 0.0, 0.0, 0.0, 0.0, 0.0, 0.0, 0.0, 0.0, 0.0, 0.0, 0.0, 0.0, 0.0], "h2s_peak_kg_day_km": 0.0, "risk_tier": "minimal", "exposure": {"ppm": 0.0, "label": "not detectable", "odour_detect_ppm": 0.0005, "who_24h_ppm": 0.107, "atsdr_acute_mrl_ppm": 0.07, "osha_ceiling_ppm": 20.0}, "source": "physical"}}, {"type": "Feature", "geometry": {"type": "Point", "coordinates": [-66.70671, 17.96]}, "properties": {"seg_id": "PU060", "name": "Pe\u00f1uelas / Tallaboa", "island": "puerto_rico", "coast": "south", "length_m": 5000.0, "kg_per_m_total": 0.0, "kg_per_m_physical": 0.0, "tonnes_total": 0.0, "tonnes_by_day": [0.0, 0.0, 0.0, 0.0, 0.0], "h2s_kg_per_day": [0.0, 0.0, 0.0, 0.0, 0.0, 0.0, 0.0, 0.0, 0.0, 0.0, 0.0, 0.0, 0.0, 0.0, 0.0, 0.0, 0.0], "nh3_kg_per_day": [0.0, 0.0, 0.0, 0.0, 0.0, 0.0, 0.0, 0.0, 0.0, 0.0, 0.0, 0.0, 0.0, 0.0, 0.0, 0.0, 0.0], "h2s_peak_kg_day_km": 0.0, "risk_tier": "minimal", "exposure": {"ppm": 0.0, "label": "not detectable", "odour_detect_ppm": 0.0005, "who_24h_ppm": 0.107, "atsdr_acute_mrl_ppm": 0.07, "osha_ceiling_ppm": 20.0}, "source": "physical"}}, {"type": "Feature", "geometry": {"type": "Point", "coordinates": [-66.75375, 17.95625]}, "properties": {"seg_id": "PU061", "name": "Pe\u00f1uelas / Tallaboa", "island": "puerto_rico", "coast": "south", "length_m": 5000.0, "kg_per_m_total": 5.58, "kg_per_m_physical": 5.58, "tonnes_total": 27.899, "tonnes_by_day": [24.253, 3.178, 0.0, 0.0, 0.468], "h2s_kg_per_day": [0.0, 0.0, 1.314, 3.582, 3.315, 2.724, 2.23, 1.863, 1.56, 1.277, 1.046, 0.856, 0.701, 0.574, 0.47, 0.385, 0.315], "nh3_kg_per_day": [0.0, 0.0, 0.41, 1.119, 1.036, 0.851, 0.697, 0.582, 0.487, 0.399, 0.327, 0.268, 0.219, 0.179, 0.147, 0.12, 0.098], "h2s_peak_kg_day_km": 0.716, "risk_tier": "low", "exposure": {"ppm": 0.03685, "label": "clear rotten-egg odour", "odour_detect_ppm": 0.0005, "who_24h_ppm": 0.107, "atsdr_acute_mrl_ppm": 0.07, "osha_ceiling_ppm": 20.0}, "source": "physical"}}, {"type": "Feature", "geometry": {"type": "Point", "coordinates": [-66.8007, 17.95103]}, "properties": {"seg_id": "PU062", "name": "Guayanilla", "island": "puerto_rico", "coast": "south", "length_m": 5000.0, "kg_per_m_total": 12.132, "kg_per_m_physical": 12.132, "tonnes_total": 60.662, "tonnes_by_day": [19.039, 12.343, 12.472, 10.686, 6.121], "h2s_kg_per_day": [0.0, 0.0, 0.838, 3.134, 4.536, 5.495, 6.039, 5.669, 4.653, 3.81, 3.119, 2.554, 2.091, 1.712, 1.402, 1.148, 0.94], "nh3_kg_per_day": [0.0, 0.0, 0.262, 0.979, 1.418, 1.717, 1.887, 1.771, 1.454, 1.191, 0.975, 0.798, 0.653, 0.535, 0.438, 0.359, 0.294], "h2s_peak_kg_day_km": 1.208, "risk_tier": "low", "exposure": {"ppm": 0.00873, "label": "faint odour", "odour_detect_ppm": 0.0005, "who_24h_ppm": 0.107, "atsdr_acute_mrl_ppm": 0.07, "osha_ceiling_ppm": 20.0}, "source": "physical"}}, {"type": "Feature", "geometry": {"type": "Point", "coordinates": [-66.84765, 17.94582]}, "properties": {"seg_id": "PU063", "name": "Gu\u00e1nica", "island": "puerto_rico", "coast": "south", "length_m": 5000.0, "kg_per_m_total": 11.864, "kg_per_m_physical": 11.864, "tonnes_total": 59.32, "tonnes_by_day": [9.012, 16.403, 12.327, 11.285, 10.293], "h2s_kg_per_day": [0.0, 0.0, 0.522, 2.233, 4.08, 5.173, 5.914, 5.838, 4.801, 3.931, 3.218, 2.635, 2.157, 1.766, 1.446, 1.184, 0.969], "nh3_kg_per_day": [0.0, 0.0, 0.163, 0.698, 1.275, 1.617, 1.848, 1.824, 1.5, 1.228, 1.006, 0.823, 0.674, 0.552, 0.452, 0.37, 0.303], "h2s_peak_kg_day_km": 1.183, "risk_tier": "low", "exposure": {"ppm": 0.00789, "label": "faint odour", "odour_detect_ppm": 0.0005, "who_24h_ppm": 0.107, "atsdr_acute_mrl_ppm": 0.07, "osha_ceiling_ppm": 20.0}, "source": "physical"}}, {"type": "Feature", "geometry": {"type": "Point", "coordinates": [-66.89459, 17.9406]}, "properties": {"seg_id": "PU064", "name": "Gu\u00e1nica", "island": "puerto_rico", "coast": "south", "length_m": 5000.0, "kg_per_m_total": 0.0, "kg_per_m_physical": 0.0, "tonnes_total": 0.0, "tonnes_by_day": [0.0, 0.0, 0.0, 0.0, 0.0], "h2s_kg_per_day": [0.0, 0.0, 0.0, 0.0, 0.0, 0.0, 0.0, 0.0, 0.0, 0.0, 0.0, 0.0, 0.0, 0.0, 0.0, 0.0, 0.0], "nh3_kg_per_day": [0.0, 0.0, 0.0, 0.0, 0.0, 0.0, 0.0, 0.0, 0.0, 0.0, 0.0, 0.0, 0.0, 0.0, 0.0, 0.0, 0.0], "h2s_peak_kg_day_km": 0.0, "risk_tier": "minimal", "exposure": {"ppm": 0.0, "label": "not detectable", "odour_detect_ppm": 0.0005, "who_24h_ppm": 0.107, "atsdr_acute_mrl_ppm": 0.07, "osha_ceiling_ppm": 20.0}, "source": "physical"}}, {"type": "Feature", "geometry": {"type": "Point", "coordinates": [-66.94154, 17.94462]}, "properties": {"seg_id": "PU065", "name": "Gu\u00e1nica", "island": "puerto_rico", "coast": "south", "length_m": 5000.0, "kg_per_m_total": 0.0, "kg_per_m_physical": 0.0, "tonnes_total": 0.0, "tonnes_by_day": [0.0, 0.0, 0.0, 0.0, 0.0], "h2s_kg_per_day": [0.0, 0.0, 0.0, 0.0, 0.0, 0.0, 0.0, 0.0, 0.0, 0.0, 0.0, 0.0, 0.0, 0.0, 0.0, 0.0, 0.0], "nh3_kg_per_day": [0.0, 0.0, 0.0, 0.0, 0.0, 0.0, 0.0, 0.0, 0.0, 0.0, 0.0, 0.0, 0.0, 0.0, 0.0, 0.0, 0.0], "h2s_peak_kg_day_km": 0.0, "risk_tier": "minimal", "exposure": {"ppm": 0.0, "label": "not detectable", "odour_detect_ppm": 0.0005, "who_24h_ppm": 0.107, "atsdr_acute_mrl_ppm": 0.07, "osha_ceiling_ppm": 20.0}, "source": "physical"}}, {"type": "Feature", "geometry": {"type": "Point", "coordinates": [-66.98848, 17.94983]}, "properties": {"seg_id": "PU066", "name": "Lajas / La Parguera", "island": "puerto_rico", "coast": "south", "length_m": 5000.0, "kg_per_m_total": 0.0, "kg_per_m_physical": 0.0, "tonnes_total": 0.0, "tonnes_by_day": [0.0, 0.0, 0.0, 0.0, 0.0], "h2s_kg_per_day": [0.0, 0.0, 0.0, 0.0, 0.0, 0.0, 0.0, 0.0, 0.0, 0.0, 0.0, 0.0, 0.0, 0.0, 0.0, 0.0, 0.0], "nh3_kg_per_day": [0.0, 0.0, 0.0, 0.0, 0.0, 0.0, 0.0, 0.0, 0.0, 0.0, 0.0, 0.0, 0.0, 0.0, 0.0, 0.0, 0.0], "h2s_peak_kg_day_km": 0.0, "risk_tier": "minimal", "exposure": {"ppm": 0.0, "label": "not detectable", "odour_detect_ppm": 0.0005, "who_24h_ppm": 0.107, "atsdr_acute_mrl_ppm": 0.07, "osha_ceiling_ppm": 20.0}, "source": "physical"}}, {"type": "Feature", "geometry": {"type": "Point", "coordinates": [-67.03523, 17.95646]}, "properties": {"seg_id": "PU067", "name": "Lajas / La Parguera", "island": "puerto_rico", "coast": "south", "length_m": 5000.0, "kg_per_m_total": 0.0, "kg_per_m_physical": 0.0, "tonnes_total": 0.0, "tonnes_by_day": [0.0, 0.0, 0.0, 0.0, 0.0], "h2s_kg_per_day": [0.0, 0.0, 0.0, 0.0, 0.0, 0.0, 0.0, 0.0, 0.0, 0.0, 0.0, 0.0, 0.0, 0.0, 0.0, 0.0, 0.0], "nh3_kg_per_day": [0.0, 0.0, 0.0, 0.0, 0.0, 0.0, 0.0, 0.0, 0.0, 0.0, 0.0, 0.0, 0.0, 0.0, 0.0, 0.0, 0.0], "h2s_peak_kg_day_km": 0.0, "risk_tier": "minimal", "exposure": {"ppm": 0.0, "label": "not detectable", "odour_detect_ppm": 0.0005, "who_24h_ppm": 0.107, "atsdr_acute_mrl_ppm": 0.07, "osha_ceiling_ppm": 20.0}, "source": "physical"}}, {"type": "Feature", "geometry": {"type": "Point", "coordinates": [-67.08198, 17.95686]}, "properties": {"seg_id": "PU068", "name": "Lajas / La Parguera", "island": "puerto_rico", "coast": "south", "length_m": 5000.0, "kg_per_m_total": 2.248, "kg_per_m_physical": 2.248, "tonnes_total": 11.241, "tonnes_by_day": [11.241, 0.0, 0.0, 0.0, 0.0], "h2s_kg_per_day": [0.0, 0.0, 0.567, 1.591, 1.335, 1.093, 0.895, 0.733, 0.6, 0.491, 0.402, 0.329, 0.269, 0.221, 0.181, 0.148, 0.121], "nh3_kg_per_day": [0.0, 0.0, 0.177, 0.497, 0.417, 0.342, 0.28, 0.229, 0.187, 0.153, 0.126, 0.103, 0.084, 0.069, 0.056, 0.046, 0.038], "h2s_peak_kg_day_km": 0.318, "risk_tier": "minimal", "exposure": {"ppm": 0.08525, "label": "strong odour, above health guideline levels", "odour_detect_ppm": 0.0005, "who_24h_ppm": 0.107, "atsdr_acute_mrl_ppm": 0.07, "osha_ceiling_ppm": 20.0}, "source": "physical"}}, {"type": "Feature", "geometry": {"type": "Point", "coordinates": [-67.12872, 17.95018]}, "properties": {"seg_id": "PU069", "name": "Cabo Rojo / El Combate", "island": "puerto_rico", "coast": "south", "length_m": 5000.0, "kg_per_m_total": 6.737, "kg_per_m_physical": 6.737, "tonnes_total": 33.683, "tonnes_by_day": [0.0, 6.124, 9.743, 9.19, 8.626], "h2s_kg_per_day": [0.0, 0.0, 0.0, 0.345, 1.419, 2.619, 3.524, 3.723, 3.064, 2.508, 2.054, 1.681, 1.377, 1.127, 0.923, 0.755, 0.619], "nh3_kg_per_day": [0.0, 0.0, 0.0, 0.108, 0.443, 0.818, 1.101, 1.163, 0.957, 0.784, 0.642, 0.525, 0.43, 0.352, 0.288, 0.236, 0.193], "h2s_peak_kg_day_km": 0.745, "risk_tier": "low", "exposure": {"ppm": 0.00661, "label": "faint odour", "odour_detect_ppm": 0.0005, "who_24h_ppm": 0.107, "atsdr_acute_mrl_ppm": 0.07, "osha_ceiling_ppm": 20.0}, "source": "physical"}}, {"type": "Feature", "geometry": {"type": "Point", "coordinates": [-67.17339, 17.93554]}, "properties": {"seg_id": "PU070", "name": "Cabo Rojo / El Combate", "island": "puerto_rico", "coast": "south", "length_m": 5000.0, "kg_per_m_total": 40.226, "kg_per_m_physical": 40.226, "tonnes_total": 201.132, "tonnes_by_day": [117.795, 83.338, 0.0, 0.0, 0.0], "h2s_kg_per_day": [0.0, 0.0, 2.482, 18.308, 26.583, 22.294, 18.253, 14.944, 12.235, 10.017, 8.202, 6.715, 5.498, 4.501, 3.685, 3.017, 2.47], "nh3_kg_per_day": [0.0, 0.0, 0.776, 5.721, 8.307, 6.967, 5.704, 4.67, 3.824, 3.13, 2.563, 2.098, 1.718, 1.407, 1.152, 0.943, 0.772], "h2s_peak_kg_day_km": 5.317, "risk_tier": "moderate", "exposure": {"ppm": 0.01879, "label": "faint odour", "odour_detect_ppm": 0.0005, "who_24h_ppm": 0.107, "atsdr_acute_mrl_ppm": 0.07, "osha_ceiling_ppm": 20.0}, "source": "physical"}}, {"type": "Feature", "geometry": {"type": "Point", "coordinates": [-67.19399, 17.95796]}, "properties": {"seg_id": "PU071", "name": "Cabo Rojo / El Combate", "island": "puerto_rico", "coast": "west", "length_m": 5000.0, "kg_per_m_total": 0.0, "kg_per_m_physical": 0.0, "tonnes_total": 0.0, "tonnes_by_day": [0.0, 0.0, 0.0, 0.0, 0.0], "h2s_kg_per_day": [0.0, 0.0, 0.0, 0.0, 0.0, 0.0, 0.0, 0.0, 0.0, 0.0, 0.0, 0.0, 0.0, 0.0, 0.0, 0.0, 0.0], "nh3_kg_per_day": [0.0, 0.0, 0.0, 0.0, 0.0, 0.0, 0.0, 0.0, 0.0, 0.0, 0.0, 0.0, 0.0, 0.0, 0.0, 0.0, 0.0], "h2s_peak_kg_day_km": 0.0, "risk_tier": "minimal", "exposure": {"ppm": 0.0, "label": "not detectable", "odour_detect_ppm": 0.0005, "who_24h_ppm": 0.107, "atsdr_acute_mrl_ppm": 0.07, "osha_ceiling_ppm": 20.0}, "source": "physical"}}, {"type": "Feature", "geometry": {"type": "Point", "coordinates": [-67.19968, 18.00252]}, "properties": {"seg_id": "PU072", "name": "Boquer\u00f3n", "island": "puerto_rico", "coast": "west", "length_m": 5000.0, "kg_per_m_total": 0.0, "kg_per_m_physical": 0.0, "tonnes_total": 0.0, "tonnes_by_day": [0.0, 0.0, 0.0, 0.0, 0.0], "h2s_kg_per_day": [0.0, 0.0, 0.0, 0.0, 0.0, 0.0, 0.0, 0.0, 0.0, 0.0, 0.0, 0.0, 0.0, 0.0, 0.0, 0.0, 0.0], "nh3_kg_per_day": [0.0, 0.0, 0.0, 0.0, 0.0, 0.0, 0.0, 0.0, 0.0, 0.0, 0.0, 0.0, 0.0, 0.0, 0.0, 0.0, 0.0], "h2s_peak_kg_day_km": 0.0, "risk_tier": "minimal", "exposure": {"ppm": 0.0, "label": "not detectable", "odour_detect_ppm": 0.0005, "who_24h_ppm": 0.107, "atsdr_acute_mrl_ppm": 0.07, "osha_ceiling_ppm": 20.0}, "source": "physical"}}, {"type": "Feature", "geometry": {"type": "Point", "coordinates": [-67.1941, 18.04718]}, "properties": {"seg_id": "PU073", "name": "Boquer\u00f3n", "island": "puerto_rico", "coast": "west", "length_m": 5000.0, "kg_per_m_total": 0.0, "kg_per_m_physical": 0.0, "tonnes_total": 0.0, "tonnes_by_day": [0.0, 0.0, 0.0, 0.0, 0.0], "h2s_kg_per_day": [0.0, 0.0, 0.0, 0.0, 0.0, 0.0, 0.0, 0.0, 0.0, 0.0, 0.0, 0.0, 0.0, 0.0, 0.0, 0.0, 0.0], "nh3_kg_per_day": [0.0, 0.0, 0.0, 0.0, 0.0, 0.0, 0.0, 0.0, 0.0, 0.0, 0.0, 0.0, 0.0, 0.0, 0.0, 0.0, 0.0], "h2s_peak_kg_day_km": 0.0, "risk_tier": "minimal", "exposure": {"ppm": 0.0, "label": "not detectable", "odour_detect_ppm": 0.0005, "who_24h_ppm": 0.107, "atsdr_acute_mrl_ppm": 0.07, "osha_ceiling_ppm": 20.0}, "source": "physical"}}, {"type": "Feature", "geometry": {"type": "Point", "coordinates": [-67.19, 18.09191]}, "properties": {"seg_id": "PU074", "name": "Joyuda", "island": "puerto_rico", "coast": "west", "length_m": 5000.0, "kg_per_m_total": 0.0, "kg_per_m_physical": 0.0, "tonnes_total": 0.0, "tonnes_by_day": [0.0, 0.0, 0.0, 0.0, 0.0], "h2s_kg_per_day": [0.0, 0.0, 0.0, 0.0, 0.0, 0.0, 0.0, 0.0, 0.0, 0.0, 0.0, 0.0, 0.0, 0.0, 0.0, 0.0, 0.0], "nh3_kg_per_day": [0.0, 0.0, 0.0, 0.0, 0.0, 0.0, 0.0, 0.0, 0.0, 0.0, 0.0, 0.0, 0.0, 0.0, 0.0, 0.0, 0.0], "h2s_peak_kg_day_km": 0.0, "risk_tier": "minimal", "exposure": {"ppm": 0.0, "label": "not detectable", "odour_detect_ppm": 0.0005, "who_24h_ppm": 0.107, "atsdr_acute_mrl_ppm": 0.07, "osha_ceiling_ppm": 20.0}, "source": "physical"}}, {"type": "Feature", "geometry": {"type": "Point", "coordinates": [-67.19, 18.13688]}, "properties": {"seg_id": "PU075", "name": "Joyuda", "island": "puerto_rico", "coast": "west", "length_m": 5000.0, "kg_per_m_total": 0.0, "kg_per_m_physical": 0.0, "tonnes_total": 0.0, "tonnes_by_day": [0.0, 0.0, 0.0, 0.0, 0.0], "h2s_kg_per_day": [0.0, 0.0, 0.0, 0.0, 0.0, 0.0, 0.0, 0.0, 0.0, 0.0, 0.0, 0.0, 0.0, 0.0, 0.0, 0.0, 0.0], "nh3_kg_per_day": [0.0, 0.0, 0.0, 0.0, 0.0, 0.0, 0.0, 0.0, 0.0, 0.0, 0.0, 0.0, 0.0, 0.0, 0.0, 0.0, 0.0], "h2s_peak_kg_day_km": 0.0, "risk_tier": "minimal", "exposure": {"ppm": 0.0, "label": "not detectable", "odour_detect_ppm": 0.0005, "who_24h_ppm": 0.107, "atsdr_acute_mrl_ppm": 0.07, "osha_ceiling_ppm": 20.0}, "source": "physical"}}, {"type": "Feature", "geometry": {"type": "Point", "coordinates": [-67.18469, 18.18125]}, "properties": {"seg_id": "PU076", "name": "Mayag\u00fcez", "island": "puerto_rico", "coast": "west", "length_m": 5000.0, "kg_per_m_total": 0.0, "kg_per_m_physical": 0.0, "tonnes_total": 0.0, "tonnes_by_day": [0.0, 0.0, 0.0, 0.0, 0.0], "h2s_kg_per_day": [0.0, 0.0, 0.0, 0.0, 0.0, 0.0, 0.0, 0.0, 0.0, 0.0, 0.0, 0.0, 0.0, 0.0, 0.0, 0.0, 0.0], "nh3_kg_per_day": [0.0, 0.0, 0.0, 0.0, 0.0, 0.0, 0.0, 0.0, 0.0, 0.0, 0.0, 0.0, 0.0, 0.0, 0.0, 0.0, 0.0], "h2s_peak_kg_day_km": 0.0, "risk_tier": "minimal", "exposure": {"ppm": 0.0, "label": "not detectable", "odour_detect_ppm": 0.0005, "who_24h_ppm": 0.107, "atsdr_acute_mrl_ppm": 0.07, "osha_ceiling_ppm": 20.0}, "source": "physical"}}, {"type": "Feature", "geometry": {"type": "Point", "coordinates": [-67.17375, 18.225]}, "properties": {"seg_id": "PU077", "name": "Mayag\u00fcez", "island": "puerto_rico", "coast": "west", "length_m": 5000.0, "kg_per_m_total": 0.0, "kg_per_m_physical": 0.0, "tonnes_total": 0.0, "tonnes_by_day": [0.0, 0.0, 0.0, 0.0, 0.0], "h2s_kg_per_day": [0.0, 0.0, 0.0, 0.0, 0.0, 0.0, 0.0, 0.0, 0.0, 0.0, 0.0, 0.0, 0.0, 0.0, 0.0, 0.0, 0.0], "nh3_kg_per_day": [0.0, 0.0, 0.0, 0.0, 0.0, 0.0, 0.0, 0.0, 0.0, 0.0, 0.0, 0.0, 0.0, 0.0, 0.0, 0.0, 0.0], "h2s_peak_kg_day_km": 0.0, "risk_tier": "minimal", "exposure": {"ppm": 0.0, "label": "not detectable", "odour_detect_ppm": 0.0005, "who_24h_ppm": 0.107, "atsdr_acute_mrl_ppm": 0.07, "osha_ceiling_ppm": 20.0}, "source": "physical"}}, {"type": "Feature", "geometry": {"type": "Point", "coordinates": [-67.17815, 18.26852]}, "properties": {"seg_id": "PU078", "name": "Mayag\u00fcez", "island": "puerto_rico", "coast": "west", "length_m": 5000.0, "kg_per_m_total": 0.0, "kg_per_m_physical": 0.0, "tonnes_total": 0.0, "tonnes_by_day": [0.0, 0.0, 0.0, 0.0, 0.0], "h2s_kg_per_day": [0.0, 0.0, 0.0, 0.0, 0.0, 0.0, 0.0, 0.0, 0.0, 0.0, 0.0, 0.0, 0.0, 0.0, 0.0, 0.0, 0.0], "nh3_kg_per_day": [0.0, 0.0, 0.0, 0.0, 0.0, 0.0, 0.0, 0.0, 0.0, 0.0, 0.0, 0.0, 0.0, 0.0, 0.0, 0.0, 0.0], "h2s_peak_kg_day_km": 0.0, "risk_tier": "minimal", "exposure": {"ppm": 0.0, "label": "not detectable", "odour_detect_ppm": 0.0005, "who_24h_ppm": 0.107, "atsdr_acute_mrl_ppm": 0.07, "osha_ceiling_ppm": 20.0}, "source": "physical"}}, {"type": "Feature", "geometry": {"type": "Point", "coordinates": [-67.19167, 18.31119]}, "properties": {"seg_id": "PU079", "name": "A\u00f1asco / Rinc\u00f3n", "island": "puerto_rico", "coast": "south", "length_m": 5000.0, "kg_per_m_total": 0.0, "kg_per_m_physical": 0.0, "tonnes_total": 0.0, "tonnes_by_day": [0.0, 0.0, 0.0, 0.0, 0.0], "h2s_kg_per_day": [0.0, 0.0, 0.0, 0.0, 0.0, 0.0, 0.0, 0.0, 0.0, 0.0, 0.0, 0.0, 0.0, 0.0, 0.0, 0.0, 0.0], "nh3_kg_per_day": [0.0, 0.0, 0.0, 0.0, 0.0, 0.0, 0.0, 0.0, 0.0, 0.0, 0.0, 0.0, 0.0, 0.0, 0.0, 0.0, 0.0], "h2s_peak_kg_day_km": 0.0, "risk_tier": "minimal", "exposure": {"ppm": 0.0, "label": "not detectable", "odour_detect_ppm": 0.0005, "who_24h_ppm": 0.107, "atsdr_acute_mrl_ppm": 0.07, "osha_ceiling_ppm": 20.0}, "source": "physical"}}, {"type": "Feature", "geometry": {"type": "Point", "coordinates": [-67.22952, 18.33823]}, "properties": {"seg_id": "PU080", "name": "A\u00f1asco / Rinc\u00f3n", "island": "puerto_rico", "coast": "south", "length_m": 5000.0, "kg_per_m_total": 0.0, "kg_per_m_physical": 0.0, "tonnes_total": 0.0, "tonnes_by_day": [0.0, 0.0, 0.0, 0.0, 0.0], "h2s_kg_per_day": [0.0, 0.0, 0.0, 0.0, 0.0, 0.0, 0.0, 0.0, 0.0, 0.0, 0.0, 0.0, 0.0, 0.0, 0.0, 0.0, 0.0], "nh3_kg_per_day": [0.0, 0.0, 0.0, 0.0, 0.0, 0.0, 0.0, 0.0, 0.0, 0.0, 0.0, 0.0, 0.0, 0.0, 0.0, 0.0, 0.0], "h2s_peak_kg_day_km": 0.0, "risk_tier": "minimal", "exposure": {"ppm": 0.0, "label": "not detectable", "odour_detect_ppm": 0.0005, "who_24h_ppm": 0.107, "atsdr_acute_mrl_ppm": 0.07, "osha_ceiling_ppm": 20.0}, "source": "physical"}}, {"type": "Feature", "geometry": {"type": "Point", "coordinates": [-67.25758, 18.36845]}, "properties": {"seg_id": "PU081", "name": "Rinc\u00f3n / Punta Hig\u00fcero", "island": "puerto_rico", "coast": "west", "length_m": 5000.0, "kg_per_m_total": 0.0, "kg_per_m_physical": 0.0, "tonnes_total": 0.0, "tonnes_by_day": [0.0, 0.0, 0.0, 0.0, 0.0], "h2s_kg_per_day": [0.0, 0.0, 0.0, 0.0, 0.0, 0.0, 0.0, 0.0, 0.0, 0.0, 0.0, 0.0, 0.0, 0.0, 0.0, 0.0, 0.0], "nh3_kg_per_day": [0.0, 0.0, 0.0, 0.0, 0.0, 0.0, 0.0, 0.0, 0.0, 0.0, 0.0, 0.0, 0.0, 0.0, 0.0, 0.0, 0.0], "h2s_peak_kg_day_km": 0.0, "risk_tier": "minimal", "exposure": {"ppm": 0.0, "label": "not detectable", "odour_detect_ppm": 0.0005, "who_24h_ppm": 0.107, "atsdr_acute_mrl_ppm": 0.07, "osha_ceiling_ppm": 20.0}, "source": "physical"}}, {"type": "Feature", "geometry": {"type": "Point", "coordinates": [-67.24518, 18.41185]}, "properties": {"seg_id": "PU082", "name": "Aguada", "island": "puerto_rico", "coast": "west", "length_m": 5000.0, "kg_per_m_total": 0.0, "kg_per_m_physical": 0.0, "tonnes_total": 0.0, "tonnes_by_day": [0.0, 0.0, 0.0, 0.0, 0.0], "h2s_kg_per_day": [0.0, 0.0, 0.0, 0.0, 0.0, 0.0, 0.0, 0.0, 0.0, 0.0, 0.0, 0.0, 0.0, 0.0, 0.0, 0.0, 0.0], "nh3_kg_per_day": [0.0, 0.0, 0.0, 0.0, 0.0, 0.0, 0.0, 0.0, 0.0, 0.0, 0.0, 0.0, 0.0, 0.0, 0.0, 0.0, 0.0], "h2s_peak_kg_day_km": 0.0, "risk_tier": "minimal", "exposure": {"ppm": 0.0, "label": "not detectable", "odour_detect_ppm": 0.0005, "who_24h_ppm": 0.107, "atsdr_acute_mrl_ppm": 0.07, "osha_ceiling_ppm": 20.0}, "source": "physical"}}, {"type": "Feature", "geometry": {"type": "Point", "coordinates": [-67.21972, 18.44774]}, "properties": {"seg_id": "PU083", "name": "Aguada", "island": "puerto_rico", "coast": "north", "length_m": 5000.0, "kg_per_m_total": 0.0, "kg_per_m_physical": 0.0, "tonnes_total": 0.0, "tonnes_by_day": [0.0, 0.0, 0.0, 0.0, 0.0], "h2s_kg_per_day": [0.0, 0.0, 0.0, 0.0, 0.0, 0.0, 0.0, 0.0, 0.0, 0.0, 0.0, 0.0, 0.0, 0.0, 0.0, 0.0, 0.0], "nh3_kg_per_day": [0.0, 0.0, 0.0, 0.0, 0.0, 0.0, 0.0, 0.0, 0.0, 0.0, 0.0, 0.0, 0.0, 0.0, 0.0, 0.0, 0.0], "h2s_peak_kg_day_km": 0.0, "risk_tier": "minimal", "exposure": {"ppm": 0.0, "label": "not detectable", "odour_detect_ppm": 0.0005, "who_24h_ppm": 0.107, "atsdr_acute_mrl_ppm": 0.07, "osha_ceiling_ppm": 20.0}, "source": "physical"}}, {"type": "Feature", "geometry": {"type": "Point", "coordinates": [-67.18488, 18.47823]}, "properties": {"seg_id": "PU084", "name": "Aguadilla / Crash Boat", "island": "puerto_rico", "coast": "north", "length_m": 5000.0, "kg_per_m_total": 0.0, "kg_per_m_physical": 0.0, "tonnes_total": 0.0, "tonnes_by_day": [0.0, 0.0, 0.0, 0.0, 0.0], "h2s_kg_per_day": [0.0, 0.0, 0.0, 0.0, 0.0, 0.0, 0.0, 0.0, 0.0, 0.0, 0.0, 0.0, 0.0, 0.0, 0.0, 0.0, 0.0], "nh3_kg_per_day": [0.0, 0.0, 0.0, 0.0, 0.0, 0.0, 0.0, 0.0, 0.0, 0.0, 0.0, 0.0, 0.0, 0.0, 0.0, 0.0, 0.0], "h2s_peak_kg_day_km": 0.0, "risk_tier": "minimal", "exposure": {"ppm": 0.0, "label": "not detectable", "odour_detect_ppm": 0.0005, "who_24h_ppm": 0.107, "atsdr_acute_mrl_ppm": 0.07, "osha_ceiling_ppm": 20.0}, "source": "physical"}}, {"type": "Feature", "geometry": {"type": "Point", "coordinates": [-65.53308, 18.15586]}, "properties": {"seg_id": "VI000", "name": "Vieques / Green Beach", "island": "vieques", "coast": "north", "length_m": 5000.0, "kg_per_m_total": 0.0, "kg_per_m_physical": 0.0, "tonnes_total": 0.0, "tonnes_by_day": [0.0, 0.0, 0.0, 0.0, 0.0], "h2s_kg_per_day": [0.0, 0.0, 0.0, 0.0, 0.0, 0.0, 0.0, 0.0, 0.0, 0.0, 0.0, 0.0, 0.0, 0.0, 0.0, 0.0, 0.0], "nh3_kg_per_day": [0.0, 0.0, 0.0, 0.0, 0.0, 0.0, 0.0, 0.0, 0.0, 0.0, 0.0, 0.0, 0.0, 0.0, 0.0, 0.0, 0.0], "h2s_peak_kg_day_km": 0.0, "risk_tier": "minimal", "exposure": {"ppm": 0.0, "label": "not detectable", "odour_detect_ppm": 0.0005, "who_24h_ppm": 0.107, "atsdr_acute_mrl_ppm": 0.07, "osha_ceiling_ppm": 20.0}, "source": "physical"}}, {"type": "Feature", "geometry": {"type": "Point", "coordinates": [-65.48605, 18.16]}, "properties": {"seg_id": "VI001", "name": "Vieques / Isabel Segunda", "island": "vieques", "coast": "north", "length_m": 5000.0, "kg_per_m_total": 0.0, "kg_per_m_physical": 0.0, "tonnes_total": 0.0, "tonnes_by_day": [0.0, 0.0, 0.0, 0.0, 0.0], "h2s_kg_per_day": [0.0, 0.0, 0.0, 0.0, 0.0, 0.0, 0.0, 0.0, 0.0, 0.0, 0.0, 0.0, 0.0, 0.0, 0.0, 0.0, 0.0], "nh3_kg_per_day": [0.0, 0.0, 0.0, 0.0, 0.0, 0.0, 0.0, 0.0, 0.0, 0.0, 0.0, 0.0, 0.0, 0.0, 0.0, 0.0, 0.0], "h2s_peak_kg_day_km": 0.0, "risk_tier": "minimal", "exposure": {"ppm": 0.0, "label": "not detectable", "odour_detect_ppm": 0.0005, "who_24h_ppm": 0.107, "atsdr_acute_mrl_ppm": 0.07, "osha_ceiling_ppm": 20.0}, "source": "physical"}}, {"type": "Feature", "geometry": {"type": "Point", "coordinates": [-65.43872, 18.16]}, "properties": {"seg_id": "VI002", "name": "Vieques / Isabel Segunda", "island": "vieques", "coast": "north", "length_m": 5000.0, "kg_per_m_total": 0.0, "kg_per_m_physical": 0.0, "tonnes_total": 0.0, "tonnes_by_day": [0.0, 0.0, 0.0, 0.0, 0.0], "h2s_kg_per_day": [0.0, 0.0, 0.0, 0.0, 0.0, 0.0, 0.0, 0.0, 0.0, 0.0, 0.0, 0.0, 0.0, 0.0, 0.0, 0.0, 0.0], "nh3_kg_per_day": [0.0, 0.0, 0.0, 0.0, 0.0, 0.0, 0.0, 0.0, 0.0, 0.0, 0.0, 0.0, 0.0, 0.0, 0.0, 0.0, 0.0], "h2s_peak_kg_day_km": 0.0, "risk_tier": "minimal", "exposure": {"ppm": 0.0, "label": "not detectable", "odour_detect_ppm": 0.0005, "who_24h_ppm": 0.107, "atsdr_acute_mrl_ppm": 0.07, "osha_ceiling_ppm": 20.0}, "source": "physical"}}, {"type": "Feature", "geometry": {"type": "Point", "coordinates": [-65.39164, 18.15646]}, "properties": {"seg_id": "VI003", "name": "Vieques / Isabel Segunda", "island": "vieques", "coast": "north", "length_m": 5000.0, "kg_per_m_total": 0.0, "kg_per_m_physical": 0.0, "tonnes_total": 0.0, "tonnes_by_day": [0.0, 0.0, 0.0, 0.0, 0.0], "h2s_kg_per_day": [0.0, 0.0, 0.0, 0.0, 0.0, 0.0, 0.0, 0.0, 0.0, 0.0, 0.0, 0.0, 0.0, 0.0, 0.0, 0.0, 0.0], "nh3_kg_per_day": [0.0, 0.0, 0.0, 0.0, 0.0, 0.0, 0.0, 0.0, 0.0, 0.0, 0.0, 0.0, 0.0, 0.0, 0.0, 0.0, 0.0], "h2s_peak_kg_day_km": 0.0, "risk_tier": "minimal", "exposure": {"ppm": 0.0, "label": "not detectable", "odour_detect_ppm": 0.0005, "who_24h_ppm": 0.107, "atsdr_acute_mrl_ppm": 0.07, "osha_ceiling_ppm": 20.0}, "source": "physical"}}, {"type": "Feature", "geometry": {"type": "Point", "coordinates": [-65.34473, 18.15059]}, "properties": {"seg_id": "VI004", "name": "Vieques / Punta Este", "island": "vieques", "coast": "north", "length_m": 5000.0, "kg_per_m_total": 0.0, "kg_per_m_physical": 0.0, "tonnes_total": 0.0, "tonnes_by_day": [0.0, 0.0, 0.0, 0.0, 0.0], "h2s_kg_per_day": [0.0, 0.0, 0.0, 0.0, 0.0, 0.0, 0.0, 0.0, 0.0, 0.0, 0.0, 0.0, 0.0, 0.0, 0.0, 0.0, 0.0], "nh3_kg_per_day": [0.0, 0.0, 0.0, 0.0, 0.0, 0.0, 0.0, 0.0, 0.0, 0.0, 0.0, 0.0, 0.0, 0.0, 0.0, 0.0, 0.0], "h2s_peak_kg_day_km": 0.0, "risk_tier": "minimal", "exposure": {"ppm": 0.0, "label": "not detectable", "odour_detect_ppm": 0.0005, "who_24h_ppm": 0.107, "atsdr_acute_mrl_ppm": 0.07, "osha_ceiling_ppm": 20.0}, "source": "physical"}}, {"type": "Feature", "geometry": {"type": "Point", "coordinates": [-65.29985, 18.13662]}, "properties": {"seg_id": "VI005", "name": "Vieques / Punta Este", "island": "vieques", "coast": "north", "length_m": 5000.0, "kg_per_m_total": 0.44, "kg_per_m_physical": 0.44, "tonnes_total": 2.201, "tonnes_by_day": [0.0, 0.0, 0.0, 0.0, 2.201], "h2s_kg_per_day": [0.0, 0.0, 0.0, 0.0, 0.0, 0.0, 0.002, 0.203, 0.301, 0.246, 0.202, 0.165, 0.135, 0.111, 0.091, 0.074, 0.061], "nh3_kg_per_day": [0.0, 0.0, 0.0, 0.0, 0.0, 0.0, 0.001, 0.063, 0.094, 0.077, 0.063, 0.052, 0.042, 0.035, 0.028, 0.023, 0.019], "h2s_peak_kg_day_km": 0.06, "risk_tier": "minimal", "exposure": {"ppm": 0.0046, "label": "faint odour", "odour_detect_ppm": 0.0005, "who_24h_ppm": 0.107, "atsdr_acute_mrl_ppm": 0.07, "osha_ceiling_ppm": 20.0}, "source": "physical"}}, {"type": "Feature", "geometry": {"type": "Point", "coordinates": [-65.26189, 18.11189]}, "properties": {"seg_id": "VI006", "name": "Vieques / Punta Este", "island": "vieques", "coast": "east", "length_m": 5000.0, "kg_per_m_total": 0.0, "kg_per_m_physical": 0.0, "tonnes_total": 0.0, "tonnes_by_day": [0.0, 0.0, 0.0, 0.0, 0.0], "h2s_kg_per_day": [0.0, 0.0, 0.0, 0.0, 0.0, 0.0, 0.0, 0.0, 0.0, 0.0, 0.0, 0.0, 0.0, 0.0, 0.0, 0.0, 0.0], "nh3_kg_per_day": [0.0, 0.0, 0.0, 0.0, 0.0, 0.0, 0.0, 0.0, 0.0, 0.0, 0.0, 0.0, 0.0, 0.0, 0.0, 0.0, 0.0], "h2s_peak_kg_day_km": 0.0, "risk_tier": "minimal", "exposure": {"ppm": 0.0, "label": "not detectable", "odour_detect_ppm": 0.0005, "who_24h_ppm": 0.107, "atsdr_acute_mrl_ppm": 0.07, "osha_ceiling_ppm": 20.0}, "source": "physical"}}, {"type": "Feature", "geometry": {"type": "Point", "coordinates": [-65.30107, 18.09357]}, "properties": {"seg_id": "VI007", "name": "Vieques / Punta Este", "island": "vieques", "coast": "south", "length_m": 5000.0, "kg_per_m_total": 0.0, "kg_per_m_physical": 0.0, "tonnes_total": 0.0, "tonnes_by_day": [0.0, 0.0, 0.0, 0.0, 0.0], "h2s_kg_per_day": [0.0, 0.0, 0.0, 0.0, 0.0, 0.0, 0.0, 0.0, 0.0, 0.0, 0.0, 0.0, 0.0, 0.0, 0.0, 0.0, 0.0], "nh3_kg_per_day": [0.0, 0.0, 0.0, 0.0, 0.0, 0.0, 0.0, 0.0, 0.0, 0.0, 0.0, 0.0, 0.0, 0.0, 0.0, 0.0, 0.0], "h2s_peak_kg_day_km": 0.0, "risk_tier": "minimal", "exposure": {"ppm": 0.0, "label": "not detectable", "odour_detect_ppm": 0.0005, "who_24h_ppm": 0.107, "atsdr_acute_mrl_ppm": 0.07, "osha_ceiling_ppm": 20.0}, "source": "physical"}}, {"type": "Feature", "geometry": {"type": "Point", "coordinates": [-65.3472, 18.08469]}, "properties": {"seg_id": "VI008", "name": "Vieques / Sun Bay", "island": "vieques", "coast": "south", "length_m": 5000.0, "kg_per_m_total": 0.0, "kg_per_m_physical": 0.0, "tonnes_total": 0.0, "tonnes_by_day": [0.0, 0.0, 0.0, 0.0, 0.0], "h2s_kg_per_day": [0.0, 0.0, 0.0, 0.0, 0.0, 0.0, 0.0, 0.0, 0.0, 0.0, 0.0, 0.0, 0.0, 0.0, 0.0, 0.0, 0.0], "nh3_kg_per_day": [0.0, 0.0, 0.0, 0.0, 0.0, 0.0, 0.0, 0.0, 0.0, 0.0, 0.0, 0.0, 0.0, 0.0, 0.0, 0.0, 0.0], "h2s_peak_kg_day_km": 0.0, "risk_tier": "minimal", "exposure": {"ppm": 0.0, "label": "not detectable", "odour_detect_ppm": 0.0005, "who_24h_ppm": 0.107, "atsdr_acute_mrl_ppm": 0.07, "osha_ceiling_ppm": 20.0}, "source": "physical"}}, {"type": "Feature", "geometry": {"type": "Point", "coordinates": [-65.39401, 18.08175]}, "properties": {"seg_id": "VI009", "name": "Vieques / Sun Bay", "island": "vieques", "coast": "south", "length_m": 5000.0, "kg_per_m_total": 0.0, "kg_per_m_physical": 0.0, "tonnes_total": 0.0, "tonnes_by_day": [0.0, 0.0, 0.0, 0.0, 0.0], "h2s_kg_per_day": [0.0, 0.0, 0.0, 0.0, 0.0, 0.0, 0.0, 0.0, 0.0, 0.0, 0.0, 0.0, 0.0, 0.0, 0.0, 0.0, 0.0], "nh3_kg_per_day": [0.0, 0.0, 0.0, 0.0, 0.0, 0.0, 0.0, 0.0, 0.0, 0.0, 0.0, 0.0, 0.0, 0.0, 0.0, 0.0, 0.0], "h2s_peak_kg_day_km": 0.0, "risk_tier": "minimal", "exposure": {"ppm": 0.0, "label": "not detectable", "odour_detect_ppm": 0.0005, "who_24h_ppm": 0.107, "atsdr_acute_mrl_ppm": 0.07, "osha_ceiling_ppm": 20.0}, "source": "physical"}}, {"type": "Feature", "geometry": {"type": "Point", "coordinates": [-65.44091, 18.08761]}, "properties": {"seg_id": "VI010", "name": "Vieques / Sun Bay", "island": "vieques", "coast": "south", "length_m": 5000.0, "kg_per_m_total": 0.0, "kg_per_m_physical": 0.0, "tonnes_total": 0.0, "tonnes_by_day": [0.0, 0.0, 0.0, 0.0, 0.0], "h2s_kg_per_day": [0.0, 0.0, 0.0, 0.0, 0.0, 0.0, 0.0, 0.0, 0.0, 0.0, 0.0, 0.0, 0.0, 0.0, 0.0, 0.0, 0.0], "nh3_kg_per_day": [0.0, 0.0, 0.0, 0.0, 0.0, 0.0, 0.0, 0.0, 0.0, 0.0, 0.0, 0.0, 0.0, 0.0, 0.0, 0.0, 0.0], "h2s_peak_kg_day_km": 0.0, "risk_tier": "minimal", "exposure": {"ppm": 0.0, "label": "not detectable", "odour_detect_ppm": 0.0005, "who_24h_ppm": 0.107, "atsdr_acute_mrl_ppm": 0.07, "osha_ceiling_ppm": 20.0}, "source": "physical"}}, {"type": "Feature", "geometry": {"type": "Point", "coordinates": [-65.48713, 18.09678]}, "properties": {"seg_id": "VI011", "name": "Vieques / Esperanza", "island": "vieques", "coast": "south", "length_m": 5000.0, "kg_per_m_total": 0.0, "kg_per_m_physical": 0.0, "tonnes_total": 0.0, "tonnes_by_day": [0.0, 0.0, 0.0, 0.0, 0.0], "h2s_kg_per_day": [0.0, 0.0, 0.0, 0.0, 0.0, 0.0, 0.0, 0.0, 0.0, 0.0, 0.0, 0.0, 0.0, 0.0, 0.0, 0.0, 0.0], "nh3_kg_per_day": [0.0, 0.0, 0.0, 0.0, 0.0, 0.0, 0.0, 0.0, 0.0, 0.0, 0.0, 0.0, 0.0, 0.0, 0.0, 0.0, 0.0], "h2s_peak_kg_day_km": 0.0, "risk_tier": "minimal", "exposure": {"ppm": 0.0, "label": "not detectable", "odour_detect_ppm": 0.0005, "who_24h_ppm": 0.107, "atsdr_acute_mrl_ppm": 0.07, "osha_ceiling_ppm": 20.0}, "source": "physical"}}, {"type": "Feature", "geometry": {"type": "Point", "coordinates": [-65.53288, 18.10822]}, "properties": {"seg_id": "VI012", "name": "Vieques / Green Beach", "island": "vieques", "coast": "south", "length_m": 5000.0, "kg_per_m_total": 0.0, "kg_per_m_physical": 0.0, "tonnes_total": 0.0, "tonnes_by_day": [0.0, 0.0, 0.0, 0.0, 0.0], "h2s_kg_per_day": [0.0, 0.0, 0.0, 0.0, 0.0, 0.0, 0.0, 0.0, 0.0, 0.0, 0.0, 0.0, 0.0, 0.0, 0.0, 0.0, 0.0], "nh3_kg_per_day": [0.0, 0.0, 0.0, 0.0, 0.0, 0.0, 0.0, 0.0, 0.0, 0.0, 0.0, 0.0, 0.0, 0.0, 0.0, 0.0, 0.0], "h2s_peak_kg_day_km": 0.0, "risk_tier": "minimal", "exposure": {"ppm": 0.0, "label": "not detectable", "odour_detect_ppm": 0.0005, "who_24h_ppm": 0.107, "atsdr_acute_mrl_ppm": 0.07, "osha_ceiling_ppm": 20.0}, "source": "physical"}}, {"type": "Feature", "geometry": {"type": "Point", "coordinates": [-65.56752, 18.13752]}, "properties": {"seg_id": "VI013", "name": "Vieques / Green Beach", "island": "vieques", "coast": "west", "length_m": 5000.0, "kg_per_m_total": 0.0, "kg_per_m_physical": 0.0, "tonnes_total": 0.0, "tonnes_by_day": [0.0, 0.0, 0.0, 0.0, 0.0], "h2s_kg_per_day": [0.0, 0.0, 0.0, 0.0, 0.0, 0.0, 0.0, 0.0, 0.0, 0.0, 0.0, 0.0, 0.0, 0.0, 0.0, 0.0, 0.0], "nh3_kg_per_day": [0.0, 0.0, 0.0, 0.0, 0.0, 0.0, 0.0, 0.0, 0.0, 0.0, 0.0, 0.0, 0.0, 0.0, 0.0, 0.0, 0.0], "h2s_peak_kg_day_km": 0.0, "risk_tier": "minimal", "exposure": {"ppm": 0.0, "label": "not detectable", "odour_detect_ppm": 0.0005, "who_24h_ppm": 0.107, "atsdr_acute_mrl_ppm": 0.07, "osha_ceiling_ppm": 20.0}, "source": "physical"}}, {"type": "Feature", "geometry": {"type": "Point", "coordinates": [-65.28508, 18.33672]}, "properties": {"seg_id": "CU000", "name": "Culebra / Flamenco", "island": "culebra", "coast": "north", "length_m": 5000.0, "kg_per_m_total": 916.911, "kg_per_m_physical": 916.911, "tonnes_total": 4584.553, "tonnes_by_day": [0.0, 86.871, 585.964, 2106.298, 1805.42], "h2s_kg_per_day": [0.0, 0.0, 0.0, 0.389, 22.075, 138.52, 415.352, 574.509, 495.293, 405.512, 332.005, 271.823, 222.55, 182.208, 149.179, 122.138, 99.998], "nh3_kg_per_day": [0.0, 0.0, 0.0, 0.121, 6.898, 43.288, 129.798, 179.534, 154.779, 126.722, 103.752, 84.945, 69.547, 56.94, 46.619, 38.168, 31.249], "h2s_peak_kg_day_km": 114.902, "risk_tier": "high", "exposure": {"ppm": 0.05246, "label": "clear rotten-egg odour", "odour_detect_ppm": 0.0005, "who_24h_ppm": 0.107, "atsdr_acute_mrl_ppm": 0.07, "osha_ceiling_ppm": 20.0}, "source": "physical"}}, {"type": "Feature", "geometry": {"type": "Point", "coordinates": [-65.26504, 18.30487]}, "properties": {"seg_id": "CU001", "name": "Culebra / Zoni", "island": "culebra", "coast": "east", "length_m": 5000.0, "kg_per_m_total": 1259.589, "kg_per_m_physical": 1259.589, "tonnes_total": 6297.943, "tonnes_by_day": [0.0, 47.461, 1666.633, 2341.789, 2242.06], "h2s_kg_per_day": [0.0, 0.0, 0.0, 1.454, 25.796, 255.348, 583.933, 769.115, 670.486, 548.947, 449.44, 367.97, 301.269, 246.658, 201.946, 165.34, 135.369], "nh3_kg_per_day": [0.0, 0.0, 0.0, 0.454, 8.061, 79.796, 182.479, 240.348, 209.527, 171.546, 140.45, 114.991, 94.146, 77.081, 63.108, 51.669, 42.303], "h2s_peak_kg_day_km": 153.823, "risk_tier": "high", "exposure": {"ppm": 0.06982, "label": "clear rotten-egg odour", "odour_detect_ppm": 0.0005, "who_24h_ppm": 0.107, "atsdr_acute_mrl_ppm": 0.07, "osha_ceiling_ppm": 20.0}, "source": "physical"}}, {"type": "Feature", "geometry": {"type": "Point", "coordinates": [-65.30093, 18.29]}, "properties": {"seg_id": "CU002", "name": "Culebra / Dewey", "island": "culebra", "coast": "south", "length_m": 5000.0, "kg_per_m_total": 19.403, "kg_per_m_physical": 19.403, "tonnes_total": 97.014, "tonnes_by_day": [0.0, 1.175, 15.139, 7.418, 73.281], "h2s_kg_per_day": [0.0, 0.0, 0.0, 0.001, 0.509, 2.412, 4.41, 11.48, 11.485, 9.403, 7.699, 6.303, 5.161, 4.225, 3.459, 2.832, 2.319], "nh3_kg_per_day": [0.0, 0.0, 0.0, 0.0, 0.159, 0.754, 1.378, 3.588, 3.589, 2.939, 2.406, 1.97, 1.613, 1.32, 1.081, 0.885, 0.725], "h2s_peak_kg_day_km": 2.297, "risk_tier": "low", "exposure": {"ppm": 0.00507, "label": "faint odour", "odour_detect_ppm": 0.0005, "who_24h_ppm": 0.107, "atsdr_acute_mrl_ppm": 0.07, "osha_ceiling_ppm": 20.0}, "source": "physical"}}, {"type": "Feature", "geometry": {"type": "Point", "coordinates": [-65.32642, 18.32284]}, "properties": {"seg_id": "CU003", "name": "Culebra / Flamenco", "island": "culebra", "coast": "west", "length_m": 5000.0, "kg_per_m_total": 0.0, "kg_per_m_physical": 0.0, "tonnes_total": 0.0, "tonnes_by_day": [0.0, 0.0, 0.0, 0.0, 0.0], "h2s_kg_per_day": [0.0, 0.0, 0.0, 0.0, 0.0, 0.0, 0.0, 0.0, 0.0, 0.0, 0.0, 0.0, 0.0, 0.0, 0.0, 0.0, 0.0], "nh3_kg_per_day": [0.0, 0.0, 0.0, 0.0, 0.0, 0.0, 0.0, 0.0, 0.0, 0.0, 0.0, 0.0, 0.0, 0.0, 0.0, 0.0, 0.0], "h2s_peak_kg_day_km": 0.0, "risk_tier": "minimal", "exposure": {"ppm": 0.0, "label": "not detectable", "odour_detect_ppm": 0.0005, "who_24h_ppm": 0.107, "atsdr_acute_mrl_ppm": 0.07, "osha_ceiling_ppm": 20.0}, "source": "physical"}}], "properties": {"days": ["2026-08-25", "2026-08-26", "2026-08-27", "2026-08-28", "2026-08-29"], "gas_days": ["2026-08-25", "2026-08-26", "2026-08-27", "2026-08-28", "2026-08-29", "2026-08-30", "2026-08-31", "2026-09-01", "2026-09-02", "2026-09-03", "2026-09-04", "2026-09-05", "2026-09-06", "2026-09-07", "2026-09-08", "2026-09-09", "2026-09-10"]}}