{"type":"FeatureCollection","features":[{"type":"Feature","properties":{"name":"Aguadilla"},"geometry":{"type":"Point","coordinates":[-67.16,18.46]}},{"type":"Feature","properties":{"name":"Isabela"},"geometry":{"type":"Point","coordinates":[-67.03,18.51]}},{"type":"Feature","properties":{"name":"Quebradillas"},"geometry":{"type":"Point","coordinates":[-66.94,18.49]}},{"type":"Feature","properties":{"name":"Arecibo"},"geometry":{"type":"Point","coordinates":[-66.72,18.48]}},{"type":"Feature","properties":{"name":"Barceloneta"},"geometry":{"type":"Point","coordinates":[-66.55,18.49]}},{"type":"Feature","properties":{"name":"Vega Baja"},"geometry":{"type":"Point","coordinates":[-66.38,18.48]}},{"type":"Feature","properties":{"name":"Dorado"},"geometry":{"type":"Point","coordinates":[-66.26,18.47]}},{"type":"Feature","properties":{"name":"Toa Baja"},"geometry":{"type":"Point","coordinates":[-66.15,18.46]}},{"type":"Feature","properties":{"name":"San Juan"},"geometry":{"type":"Point","coordinates":[-66.07,18.47]}},{"type":"Feature","properties":{"name":"Isla Verde"},"geometry":{"type":"Point","coordinates":[-65.98,18.45]}},{"type":"Feature","properties":{"name":"Lo\u00edza"},"geometry":{"type":"Point","coordinates":[-65.88,18.44]}},{"type":"Feature","properties":{"name":"R\u00edo Grande"},"geometry":{"type":"Point","coordinates":[-65.8,18.43]}},{"type":"Feature","properties":{"name":"Luquillo"},"geometry":{"type":"Point","coordinates":[-65.72,18.39]}},{"type":"Feature","properties":{"name":"Fajardo"},"geometry":{"type":"Point","coordinates":[-65.63,18.37]}},{"type":"Feature","properties":{"name":"Fajardo"},"geometry":{"type":"Point","coordinates":[-65.62,18.32]}},{"type":"Feature","properties":{"name":"Ceiba"},"geometry":{"type":"Point","coordinates":[-65.64,18.24]}},{"type":"Feature","properties":{"name":"Naguabo"},"geometry":{"type":"Point","coordinates":[-65.7,18.17]}},{"type":"Feature","properties":{"name":"Humacao"},"geometry":{"type":"Point","coordinates":[-65.75,18.11]}},{"type":"Feature","properties":{"name":"Yabucoa"},"geometry":{"type":"Point","coordinates":[-65.81,18.03]}},{"type":"Feature","properties":{"name":"Maunabo"},"geometry":{"type":"Point","coordinates":[-65.89,17.97]}},{"type":"Feature","properties":{"name":"Patillas"},"geometry":{"type":"Point","coordinates":[-66.01,17.95]}},{"type":"Feature","properties":{"name":"Arroyo"},"geometry":{"type":"Point","coordinates":[-66.06,17.94]}},{"type":"Feature","properties":{"name":"Guayama"},"geometry":{"type":"Point","coordinates":[-66.15,17.93]}},{"type":"Feature","properties":{"name":"Salinas"},"geometry":{"type":"Point","coordinates":[-66.28,17.94]}},{"type":"Feature","properties":{"name":"Santa Isabel"},"geometry":{"type":"Point","coordinates":[-66.4,17.94]}},{"type":"Feature","properties":{"name":"Juana D\u00edaz"},"geometry":{"type":"Point","coordinates":[-66.51,17.95]}},{"type":"Feature","properties":{"name":"Ponce"},"geometry":{"type":"Point","coordinates":[-66.62,17.96]}},{"type":"Feature","properties":{"name":"Pe\u00f1uelas"},"geometry":{"type":"Point","coordinates":[-66.72,17.96]}},{"type":"Feature","properties":{"name":"Guayanilla"},"geometry":{"type":"Point","coordinates":[-66.79,17.96]}},{"type":"Feature","properties":{"name":"Gu\u00e1nica"},"geometry":{"type":"Point","coordinates":[-66.9,17.94]}},{"type":"Feature","properties":{"name":"Lajas"},"geometry":{"type":"Point","coordinates":[-67.04,17.96]}},{"type":"Feature","properties":{"name":"Cabo Rojo"},"geometry":{"type":"Point","coordinates":[-67.18,17.95]}},{"type":"Feature","properties":{"name":"Boquer\u00f3n"},"geometry":{"type":"Point","coordinates":[-67.18,18.02]}},{"type":"Feature","properties":{"name":"Joyuda"},"geometry":{"type":"Point","coordinates":[-67.19,18.12]}},{"type":"Feature","properties":{"name":"Mayag\u00fcez"},"geometry":{"type":"Point","coordinates":[-67.16,18.21]}},{"type":"Feature","properties":{"name":"A\u00f1asco"},"geometry":{"type":"Point","coordinates":[-67.22,18.32]}},{"type":"Feature","properties":{"name":"Rinc\u00f3n"},"geometry":{"type":"Point","coordinates":[-67.26,18.36]}},{"type":"Feature","properties":{"name":"Aguada"},"geometry":{"type":"Point","coordinates":[-67.2,18.42]}},{"type":"Feature","properties":{"name":"Vieques"},"geometry":{"type":"Point","coordinates":[-65.47,18.09]}},{"type":"Feature","properties":{"name":"Vieques"},"geometry":{"type":"Point","coordinates":[-65.42,18.09]}},{"type":"Feature","properties":{"name":"Vieques"},"geometry":{"type":"Point","coordinates":[-65.44,18.15]}},{"type":"Feature","properties":{"name":"Vieques"},"geometry":{"type":"Point","coordinates":[-65.57,18.13]}},{"type":"Feature","properties":{"name":"Vieques"},"geometry":{"type":"Point","coordinates":[-65.27,18.12]}},{"type":"Feature","properties":{"name":"Culebra"},"geometry":{"type":"Point","coordinates":[-65.31,18.34]}},{"type":"Feature","properties":{"name":"Culebra"},"geometry":{"type":"Point","coordinates":[-65.3,18.3]}},{"type":"Feature","properties":{"name":"Culebra"},"geometry":{"type":"Point","coordinates":[-65.26,18.32]}}]}